{"type":"FeatureCollection","attribution":"Road geometry \u00a9 OpenStreetMap contributors (ODbL), routed by the OSRM demo server.","features":[{"type":"Feature","geometry":{"type":"LineString","coordinates":[[3.39415,6.45488],[3.39357,6.45482],[3.39367,6.45692],[3.39278,6.45902],[3.39546,6.46034],[3.39666,6.46214],[3.3975,6.46176],[3.39696,6.46103],[3.39603,6.46153],[3.39334,6.46418],[3.39194,6.46644],[3.39051,6.47147],[3.3907,6.47677],[3.39209,6.48089],[3.39828,6.49165],[3.39983,6.49508],[3.40443,6.50782],[3.40515,6.51077],[3.40558,6.51505],[3.4054,6.519],[3.40477,6.5224],[3.40071,6.53533],[3.39944,6.54237],[3.39728,6.54854],[3.39685,6.55488],[3.39562,6.55984],[3.39565,6.56289],[3.39752,6.57234],[3.39741,6.57526],[3.3961,6.578],[3.38747,6.58795],[3.38245,6.59455],[3.38256,6.5955],[3.38346,6.59558],[3.38366,6.59466],[3.37913,6.58851],[3.37661,6.58967],[3.37514,6.58992],[3.36852,6.59679],[3.36673,6.59522],[3.36852,6.59679],[3.36414,6.60091],[3.36135,6.60499],[3.36018,6.6061],[3.35742,6.60828],[3.35424,6.60912],[3.3529,6.6099],[3.35485,6.61328],[3.35638,6.61483],[3.36096,6.61796],[3.36448,6.61876],[3.36339,6.62361],[3.36344,6.62738],[3.36417,6.62882],[3.36476,6.62896],[3.36527,6.63039],[3.36505,6.63104],[3.36635,6.63394],[3.36931,6.63804],[3.37346,6.64127],[3.38965,6.64971],[3.39477,6.65297],[3.39759,6.65542],[3.40046,6.65856],[3.40274,6.66193],[3.40463,6.66564],[3.41349,6.68776],[3.41529,6.69439],[3.4157,6.69995],[3.41425,6.71747],[3.41448,6.72332],[3.41601,6.72975],[3.42048,6.73913],[3.42226,6.74548],[3.42268,6.74894],[3.42406,6.78222],[3.42524,6.7883],[3.42754,6.79393],[3.43073,6.79883],[3.43494,6.80319],[3.4472,6.8114],[3.4509,6.81464],[3.45839,6.82273],[3.46329,6.82635],[3.46706,6.82829],[3.47016,6.8294],[3.47449,6.83043],[3.48295,6.83152],[3.48956,6.8338],[3.49492,6.83706],[3.50362,6.84459],[3.51021,6.84805],[3.51526,6.84953],[3.52595,6.85103],[3.52903,6.85187],[3.53361,6.85373],[3.53858,6.85657],[3.54689,6.86285],[3.55078,6.86498],[3.55505,6.8667],[3.56328,6.86889],[3.56766,6.87094],[3.57236,6.87462],[3.57635,6.87987],[3.57743,6.88064],[3.58026,6.88129],[3.58155,6.88105],[3.6006,6.86911],[3.60365,6.86774],[3.60796,6.86697],[3.61668,6.86699],[3.61871,6.86653],[3.6202,6.86563],[3.62138,6.86433],[3.62287,6.86123],[3.62452,6.85914],[3.62728,6.85761],[3.63009,6.85725],[3.63213,6.84474],[3.63177,6.8414],[3.63085,6.83864],[3.63657,6.83633],[3.64138,6.83295],[3.642,6.83163],[3.64191,6.8308],[3.64339,6.83052],[3.64518,6.82625],[3.64487,6.82599],[3.64597,6.82441],[3.64713,6.82352],[3.64805,6.82361],[3.64744,6.82581],[3.64905,6.82693],[3.6467,6.83001],[3.64292,6.83346],[3.64709,6.84105],[3.64888,6.84555],[3.65018,6.84756],[3.65088,6.85087],[3.65201,6.85141],[3.65603,6.85191],[3.65673,6.8525],[3.65552,6.85811],[3.65439,6.86083],[3.65538,6.86638],[3.70093,6.88352],[3.70537,6.88437],[3.70977,6.88468],[3.72341,6.88364],[3.7233,6.88453],[3.71743,6.89056],[3.71993,6.89225],[3.71897,6.89317],[3.71816,6.89353],[3.71703,6.89234],[3.71666,6.89103],[3.71568,6.89089],[3.7136,6.88894],[3.71229,6.8889],[3.71143,6.88955],[3.71067,6.89081],[3.7092,6.89498],[3.70684,6.89674],[3.70549,6.89724],[3.70225,6.89725],[3.70088,6.89766],[3.66655,6.91657],[3.66552,6.91708],[3.66424,6.91703],[3.66559,6.92436],[3.66778,6.93034],[3.66765,6.93933],[3.66923,6.94399],[3.67241,6.94908],[3.67458,6.95139],[3.67515,6.95316],[3.67132,6.97301],[3.66864,6.97866],[3.66774,6.9825],[3.66867,6.98674],[3.66769,6.98729],[3.66967,6.99394],[3.67122,6.99716],[3.67286,6.99905],[3.67531,7.00074],[3.67934,7.00223],[3.6816,7.00354],[3.68741,7.00995],[3.69515,7.01445],[3.69827,7.01687],[3.70064,7.01933],[3.70298,7.02255],[3.70441,7.02535],[3.70557,7.02873],[3.70666,7.03567],[3.70769,7.03945],[3.71183,7.04767],[3.71306,7.05121],[3.71378,7.05577],[3.71396,7.0615],[3.71457,7.06427],[3.71615,7.0674],[3.72107,7.0727],[3.72269,7.07529],[3.72712,7.09001],[3.72832,7.09303],[3.72971,7.09518],[3.73205,7.09757],[3.73432,7.09907],[3.73951,7.10145],[3.74202,7.1033],[3.74416,7.10567],[3.74823,7.11193],[3.75435,7.1173],[3.75625,7.11942],[3.759,7.1242],[3.76497,7.14507],[3.76672,7.14934],[3.76922,7.15396],[3.7727,7.1589],[3.7754,7.16184],[3.77755,7.1634],[3.78448,7.16719],[3.78624,7.16853],[3.7891,7.17187],[3.79047,7.17453],[3.79255,7.18093],[3.79465,7.18553],[3.79727,7.18907],[3.80243,7.19393],[3.80436,7.19702],[3.80546,7.20038],[3.80564,7.20213],[3.80517,7.20983],[3.80579,7.21296],[3.80948,7.22014],[3.81242,7.22973],[3.8153,7.23554],[3.81913,7.24044],[3.82209,7.24314],[3.82994,7.2487],[3.83297,7.25181],[3.83544,7.25592],[3.83764,7.26242],[3.83968,7.26669],[3.84188,7.26999],[3.84439,7.27294],[3.84715,7.27548],[3.85001,7.27745],[3.8607,7.28336],[3.86318,7.28545],[3.86513,7.28785],[3.86709,7.29224],[3.8686,7.30493],[3.87171,7.31396],[3.87256,7.31892],[3.87514,7.32447],[3.87543,7.32625],[3.87527,7.3296],[3.87611,7.33172],[3.87806,7.33305],[3.88461,7.33338],[3.88686,7.33401],[3.89427,7.33718],[3.90263,7.33851],[3.90491,7.33938],[3.91047,7.34258],[3.91625,7.34407],[3.91805,7.34514],[3.91938,7.3476],[3.91951,7.3514],[3.92002,7.35295],[3.92433,7.35935],[3.92598,7.36389],[3.92897,7.36921],[3.92957,7.37156],[3.93018,7.37696],[3.9312,7.37937],[3.93292,7.38165],[3.93916,7.37855],[3.93922,7.37751],[3.93886,7.37724],[3.93935,7.37652],[3.93974,7.37667],[3.93935,7.37652],[3.93886,7.37724],[3.93922,7.37751],[3.93916,7.37855],[3.93292,7.38165],[3.9344,7.384],[3.93528,7.38837],[3.93775,7.39248],[3.93922,7.39754],[3.94428,7.40294],[3.95502,7.39459],[3.95687,7.39418],[3.96671,7.39404],[3.96898,7.3936],[3.98442,7.38594],[3.99548,7.38135],[3.99894,7.38103],[4.01294,7.38274],[4.01649,7.38266],[4.02217,7.38058],[4.02992,7.37704],[4.03218,7.37664],[4.03869,7.37647],[4.04469,7.37545],[4.06168,7.3701],[4.07091,7.36677],[4.07385,7.36685],[4.07947,7.36892],[4.08155,7.36927],[4.09036,7.36896],[4.10288,7.3676],[4.10611,7.36663],[4.11878,7.36096],[4.12867,7.35876],[4.14375,7.35361],[4.14574,7.35333],[4.14796,7.35361],[4.15024,7.3546],[4.1598,7.36174],[4.17255,7.3725],[4.18254,7.37989],[4.18581,7.38146],[4.19321,7.3836],[4.21005,7.38592],[4.21301,7.38678],[4.21577,7.38864],[4.2247,7.39853],[4.23054,7.40398],[4.23349,7.40537],[4.24088,7.40662],[4.24406,7.40801],[4.25141,7.41346],[4.25357,7.41622],[4.26027,7.43272],[4.26198,7.43576],[4.26431,7.43743],[4.27622,7.4425],[4.28719,7.45112],[4.29644,7.45966],[4.29931,7.46108],[4.32221,7.46666],[4.32914,7.46715],[4.32998,7.46695],[4.33068,7.46614],[4.3312,7.4662],[4.33144,7.46687],[4.33109,7.47338],[4.33148,7.47494],[4.3323,7.47623],[4.34665,7.48609],[4.35131,7.48851],[4.3579,7.49112],[4.35958,7.4924],[4.36238,7.49626],[4.36569,7.49997],[4.36874,7.50804],[4.37035,7.51081],[4.37238,7.51273],[4.37731,7.51584],[4.37904,7.51732],[4.38657,7.52796],[4.39088,7.53525],[4.39563,7.53836],[4.39594,7.54243],[4.41087,7.57057],[4.41306,7.57616],[4.42303,7.59678],[4.42768,7.60806],[4.43396,7.6157],[4.43534,7.61784],[4.44532,7.63625],[4.45108,7.64773],[4.46204,7.67446],[4.46942,7.69117],[4.47107,7.6938],[4.47297,7.69586],[4.48086,7.70268],[4.4834,7.70585],[4.48679,7.711],[4.4891,7.71322],[4.49056,7.71201],[4.49144,7.70774],[4.492,7.70656],[4.49909,7.70411],[4.49867,7.70267],[4.49762,7.7018],[4.49639,7.70292],[4.49703,7.70466],[4.492,7.70656],[4.49144,7.70774],[4.49056,7.71201],[4.4891,7.71322],[4.51119,7.72802],[4.51356,7.73023],[4.51533,7.73308],[4.51962,7.7485],[4.52158,7.75161],[4.52966,7.75782],[4.5319,7.75999],[4.54279,7.77212],[4.54641,7.77685],[4.54944,7.78206],[4.55075,7.78204],[4.55313,7.78046],[4.55522,7.78106],[4.55701,7.78086],[4.56243,7.78125],[4.56404,7.78186],[4.56723,7.78636],[4.57471,7.7943],[4.57842,7.79902],[4.58196,7.8062],[4.5864,7.81356],[4.58875,7.82111],[4.59026,7.82379],[4.60254,7.83909],[4.61501,7.85247],[4.61744,7.85392],[4.63042,7.85755],[4.63919,7.86597],[4.65016,7.8729],[4.65179,7.87446],[4.65254,7.87617],[4.6533,7.88111],[4.65342,7.89161],[4.65466,7.89924],[4.65473,7.90967],[4.65673,7.92594],[4.66342,7.94419],[4.66396,7.94916],[4.66367,7.95841],[4.65817,7.96842],[4.65469,7.98306],[4.65446,7.98616],[4.65521,7.99288],[4.65677,7.9958],[4.6691,8.00807],[4.67179,8.01323],[4.67273,8.01866],[4.67658,8.02465],[4.6804,8.03238],[4.6812,8.03326],[4.6849,8.03538],[4.68638,8.03669],[4.69123,8.04618],[4.69463,8.04958],[4.69566,8.05108],[4.69855,8.06075],[4.69989,8.06862],[4.70258,8.0729],[4.70232,8.07535],[4.70363,8.07891],[4.70334,8.08022],[4.70469,8.08327],[4.70589,8.08831],[4.70566,8.09026],[4.70458,8.09331],[4.70552,8.09518],[4.70549,8.09606],[4.70444,8.09865],[4.70415,8.10138],[4.70232,8.10503],[4.70508,8.10938],[4.70786,8.12046],[4.71038,8.12492],[4.71478,8.1304],[4.71806,8.13648],[4.72156,8.14729],[4.72216,8.15168],[4.72373,8.15548],[4.72652,8.16113],[4.73118,8.16889],[4.7343,8.17798],[4.73695,8.18245],[4.73998,8.18995],[4.74351,8.19685],[4.74906,8.2024],[4.76232,8.20894],[4.77123,8.21487],[4.77537,8.22035],[4.77838,8.22317],[4.78235,8.2255],[4.79153,8.22899],[4.8031,8.23432],[4.80602,8.2378],[4.80859,8.24281],[4.81034,8.24395],[4.80793,8.24856],[4.80802,8.24915],[4.80701,8.25036],[4.80311,8.25836],[4.8004,8.26574],[4.79977,8.27146],[4.79898,8.27338],[4.79817,8.27421],[4.79605,8.27466],[4.79301,8.2764],[4.78608,8.28242],[4.77579,8.28973],[4.77453,8.29233],[4.77382,8.29908],[4.77116,8.30481],[4.7684,8.31223],[4.76727,8.31418],[4.76065,8.32047],[4.75679,8.32576],[4.75211,8.33022],[4.74871,8.33256],[4.7431,8.33504],[4.74075,8.33696],[4.73282,8.3497],[4.72467,8.35788],[4.72059,8.36453],[4.71129,8.3766],[4.70425,8.3821],[4.69708,8.38542],[4.69322,8.3878],[4.68825,8.3915],[4.6818,8.39353],[4.67101,8.39539],[4.65948,8.39825],[4.65274,8.40264],[4.63886,8.40875],[4.63134,8.41257],[4.62848,8.41334],[4.61695,8.41388],[4.61392,8.41446],[4.61239,8.41551],[4.61076,8.41827],[4.60848,8.41907],[4.60636,8.4193],[4.60433,8.42044],[4.59607,8.42902],[4.59518,8.43074],[4.5934,8.43664],[4.58541,8.44506],[4.58327,8.45021],[4.57948,8.45611],[4.57111,8.46414],[4.56299,8.47786],[4.56292,8.48067],[4.5583,8.48038],[4.55478,8.48185],[4.5543,8.48273],[4.55299,8.4827],[4.55079,8.48608],[4.5489,8.49104],[4.55046,8.4905],[4.55363,8.49016],[4.55499,8.49014],[4.556,8.49062],[4.55854,8.4903],[4.56048,8.48809],[4.56417,8.48756],[4.56435,8.48868],[4.56556,8.49053],[4.56916,8.49401],[4.57277,8.4983],[4.58729,8.5106],[4.59253,8.51928],[4.59517,8.52259],[4.59927,8.52673],[4.60471,8.53028],[4.61224,8.53445],[4.62084,8.53662],[4.62873,8.54056],[4.63515,8.5432],[4.64063,8.54497],[4.64784,8.54614],[4.65185,8.54833],[4.65614,8.54878],[4.65797,8.54938],[4.66875,8.55371],[4.68451,8.56094],[4.69903,8.57129],[4.71102,8.5779],[4.7258,8.58695],[4.73415,8.59408],[4.74203,8.60021],[4.75033,8.60404],[4.75677,8.60763],[4.76379,8.61485],[4.76816,8.6163],[4.77422,8.61584],[4.7776,8.61637],[4.78255,8.6163],[4.78819,8.61509],[4.79174,8.61591],[4.79456,8.61711],[4.80119,8.62093],[4.80596,8.62233],[4.81641,8.63243],[4.82181,8.63535],[4.8268,8.63723],[4.83158,8.63829],[4.83778,8.63825],[4.84586,8.63895],[4.85047,8.63957],[4.85252,8.64078],[4.85972,8.64798],[4.86133,8.65034],[4.87804,8.6818],[4.87996,8.69014],[4.88417,8.70361],[4.88996,8.71552],[4.89362,8.72485],[4.89581,8.72696],[4.89718,8.7306],[4.8999,8.73471],[4.90146,8.7383],[4.9056,8.7457],[4.90556,8.74783],[4.90366,8.75368],[4.90405,8.75558],[4.90913,8.76041],[4.91449,8.76366],[4.91755,8.76597],[4.91832,8.76703],[4.91867,8.76904],[4.92106,8.77439],[4.92803,8.78041],[4.92927,8.7822],[4.93128,8.79116],[4.93384,8.7946],[4.93618,8.80514],[4.93788,8.81022],[4.93931,8.81193],[4.94012,8.81385],[4.93981,8.81517],[4.93766,8.81907],[4.93593,8.82108],[4.9337,8.8228],[4.93528,8.82475],[4.94236,8.82738],[4.94441,8.82735],[4.94642,8.82618],[4.95285,8.8185],[4.95706,8.81559],[4.95903,8.81535],[4.96358,8.81707],[4.96869,8.81618],[4.97018,8.8172],[4.97061,8.81982],[4.97119,8.82076],[4.97395,8.8233],[4.97899,8.82524],[4.98595,8.83184],[4.99291,8.83718],[5.00581,8.84458],[5.00715,8.84461],[5.0087,8.84416],[5.01856,8.83954],[5.02023,8.83915],[5.02859,8.8398],[5.03753,8.8391],[5.05551,8.83946],[5.10313,8.82618],[5.1046,8.82497],[5.10861,8.81866],[5.12101,8.80636],[5.13506,8.79282],[5.14267,8.78728],[5.15528,8.7841],[5.17242,8.78373],[5.21502,8.76841],[5.24191,8.7615],[5.26035,8.76016],[5.26363,8.76086],[5.2662,8.76251],[5.28184,8.7769],[5.28441,8.77863],[5.28714,8.77989],[5.29427,8.78258],[5.30347,8.783],[5.32002,8.78278],[5.33573,8.78762],[5.33886,8.78788],[5.34947,8.78283],[5.43093,8.74093],[5.43262,8.74043],[5.46226,8.73762],[5.48086,8.73663],[5.48414,8.73787],[5.50419,8.75128],[5.50643,8.75212],[5.50947,8.75199],[5.52191,8.74942],[5.52445,8.74938],[5.55774,8.7549],[5.57772,8.76176],[5.59855,8.764],[5.60336,8.76403],[5.60738,8.76325],[5.61447,8.76035],[5.6178,8.75795],[5.62058,8.75658],[5.65114,8.7458],[5.66829,8.73225],[5.67157,8.73069],[5.73361,8.72691],[5.75134,8.72461],[5.75741,8.72537],[5.75858,8.72629],[5.76072,8.72968],[5.76867,8.72603],[5.77993,8.72158],[5.78394,8.7206],[5.78903,8.72028],[5.79135,8.71963],[5.79449,8.71832],[5.79728,8.71619],[5.79906,8.71541],[5.80232,8.71722],[5.80416,8.71771],[5.80292,8.72036],[5.80097,8.72313],[5.80165,8.728],[5.80224,8.72911],[5.80218,8.73176],[5.80294,8.73502],[5.80345,8.73518],[5.80837,8.73414],[5.8104,8.73481],[5.81062,8.73607],[5.81571,8.74048],[5.81487,8.74053],[5.81316,8.74159],[5.81171,8.74409],[5.81174,8.74466],[5.81544,8.74521],[5.81788,8.74648],[5.82422,8.75152],[5.82523,8.75147],[5.82639,8.75211],[5.82807,8.75231],[5.83174,8.75352],[5.83627,8.7509],[5.83976,8.75074],[5.84603,8.74948],[5.84844,8.74984],[5.85141,8.75093],[5.85227,8.75191],[5.85125,8.75228],[5.85154,8.75269],[5.85552,8.75227],[5.85996,8.75265],[5.86121,8.75216],[5.86398,8.75209],[5.8663,8.75291],[5.86721,8.75486],[5.86888,8.75656],[5.86874,8.75745],[5.87159,8.75862],[5.87348,8.75892],[5.87811,8.76046],[5.87859,8.76221],[5.87967,8.762],[5.88975,8.76509],[5.89038,8.76466],[5.89191,8.76478],[5.89963,8.76754],[5.90069,8.76859],[5.90605,8.77075],[5.90627,8.77125],[5.90762,8.77109],[5.90943,8.76979],[5.91106,8.76943],[5.91992,8.77112],[5.92106,8.77243],[5.92225,8.7747],[5.9229,8.77696],[5.92331,8.77895],[5.9227,8.78301],[5.92435,8.78571],[5.92379,8.78839],[5.92419,8.78978],[5.92911,8.79253],[5.92953,8.79397],[5.93127,8.79599],[5.93377,8.79741],[5.93337,8.79909],[5.93377,8.80137],[5.9351,8.80309],[5.93745,8.8051],[5.93892,8.80729],[5.93956,8.80753],[5.94048,8.80909],[5.94119,8.81351],[5.94204,8.81379],[5.94228,8.81517],[5.94811,8.81588],[5.95374,8.81572],[5.95697,8.81657],[5.96232,8.81864],[5.96697,8.82156],[5.97207,8.82162],[5.97527,8.82262],[5.97766,8.8242],[5.9801,8.82649],[5.98151,8.82681],[5.98095,8.82744],[5.98089,8.82887],[5.97705,8.8312],[5.97551,8.83367],[5.97431,8.837],[5.97186,8.83891],[5.97224,8.84061],[5.97187,8.84164],[5.97224,8.84061],[5.97186,8.83891],[5.97431,8.837],[5.97551,8.83367],[5.97705,8.8312],[5.98089,8.82887],[5.98112,8.82706],[5.98151,8.82681],[5.98366,8.82697],[5.98544,8.82459],[5.9896,8.82058],[5.9919,8.81887],[5.99594,8.81713],[5.99775,8.81768],[6.0022,8.82071],[6.00945,8.8231],[6.01046,8.82404],[6.01571,8.82573],[6.01842,8.82595],[6.01927,8.82715],[6.01972,8.82859],[6.02388,8.83171],[6.02822,8.83611],[6.03198,8.84251],[6.03144,8.84753],[6.03192,8.85096],[6.02988,8.85718],[6.02985,8.8606],[6.02731,8.86438],[6.02671,8.86584],[6.02647,8.87943],[6.02757,8.88138],[6.03085,8.89332],[6.03379,8.89919],[6.03521,8.90318],[6.03941,8.91105],[6.03841,8.92017],[6.03535,8.92582],[6.03352,8.93081],[6.03353,8.93206],[6.03532,8.93829],[6.03618,8.9446],[6.0351,8.94681],[6.03315,8.94952],[6.02703,8.95514],[6.0199,8.97073],[6.01936,8.97988],[6.01811,8.98666],[6.01778,9.00188],[6.01843,9.00547],[6.01907,9.01397],[6.01976,9.01707],[6.01979,9.03084],[6.02017,9.03371],[6.01981,9.03608],[6.01866,9.03858],[6.01839,9.04076],[6.01151,9.0602],[6.01177,9.06147],[6.01618,9.06288],[6.01876,9.06411],[6.02368,9.07495],[6.03346,9.08186],[6.05471,9.07585],[6.08866,9.06901],[6.09347,9.06907],[6.11643,9.07292],[6.11912,9.07326],[6.12122,9.07302],[6.12405,9.07178],[6.12706,9.06935],[6.13956,9.05501],[6.14085,9.05219],[6.14209,9.05055],[6.14392,9.04999],[6.1458,9.05012],[6.1526,9.05182],[6.16137,9.05091],[6.17544,9.04835],[6.17919,9.04816],[6.19965,9.05086],[6.20956,9.05257],[6.22208,9.05193],[6.22726,9.05253],[6.23039,9.05235],[6.27877,9.03483],[6.28069,9.03368],[6.28552,9.02952],[6.30757,9.01467],[6.30957,9.01354],[6.31125,9.01325],[6.32539,9.01401],[6.32968,9.01548],[6.3378,9.01913],[6.3451,9.02018],[6.35405,9.02258],[6.35892,9.02305],[6.36561,9.02276],[6.37283,9.02376],[6.37814,9.02314],[6.3831,9.02379],[6.38857,9.02572],[6.39443,9.02655],[6.40448,9.03001],[6.41044,9.03093],[6.41614,9.03056],[6.41917,9.02983],[6.42392,9.02956],[6.43032,9.02861],[6.4451,9.03035],[6.44673,9.03078],[6.45148,9.033],[6.45345,9.03339],[6.45999,9.0342],[6.46916,9.03383],[6.47315,9.03468],[6.47828,9.03647],[6.48616,9.04071],[6.49077,9.04153],[6.49434,9.04333],[6.50588,9.04695],[6.51506,9.04735],[6.51744,9.04718],[6.52846,9.04483],[6.53447,9.04547],[6.54615,9.0454],[6.55306,9.04406],[6.56215,9.04363],[6.56886,9.04501],[6.57228,9.0453],[6.57754,9.04744],[6.58204,9.04838],[6.59467,9.04803],[6.59908,9.0499],[6.60582,9.0535],[6.6238,9.05766],[6.63239,9.05695],[6.63893,9.05912],[6.64043,9.05916],[6.64368,9.05878],[6.64877,9.05646],[6.65087,9.05621],[6.6615,9.05682],[6.67597,9.06098],[6.68211,9.06059],[6.68651,9.05976],[6.69297,9.06029],[6.69872,9.0589],[6.70044,9.05911],[6.7037,9.06048],[6.70527,9.06075],[6.71027,9.06008],[6.71196,9.0602],[6.71636,9.06186],[6.71781,9.06281],[6.72283,9.06957],[6.72754,9.07317],[6.73015,9.076],[6.73328,9.08131],[6.74326,9.0948],[6.74797,9.10307],[6.75446,9.11014],[6.75636,9.11491],[6.75922,9.11989],[6.75974,9.1225],[6.7597,9.12701],[6.76304,9.13692],[6.76388,9.1388],[6.7668,9.14311],[6.76948,9.14854],[6.77321,9.15377],[6.77456,9.15822],[6.77664,9.16288],[6.77872,9.17097],[6.78165,9.17639],[6.78483,9.18368],[6.78695,9.18611],[6.79127,9.1889],[6.79572,9.19408],[6.7988,9.20097],[6.79993,9.20273],[6.80663,9.20974],[6.81123,9.21374],[6.81284,9.21475],[6.81494,9.21525],[6.83094,9.21582],[6.8361,9.21505],[6.84335,9.21276],[6.84853,9.21215],[6.85323,9.21039],[6.85516,9.21042],[6.85791,9.21122],[6.88669,9.22786],[6.8894,9.23035],[6.89278,9.23429],[6.89455,9.23555],[6.89943,9.23728],[6.90704,9.23793],[6.91034,9.23888],[6.9173,9.2419],[6.92146,9.24537],[6.92321,9.24642],[6.93061,9.24819],[6.93672,9.2492],[6.94156,9.25199],[6.94634,9.25419],[6.95007,9.25651],[6.95636,9.26224],[6.95968,9.26316],[6.96403,9.26365],[6.97031,9.26683],[6.98007,9.27025],[6.99336,9.27866],[6.9937,9.27849],[7.00624,9.25273],[7.00662,9.25125],[7.00662,9.24669],[7.00771,9.24396],[7.00911,9.24244],[7.01122,9.24185],[7.01264,9.24179],[7.02031,9.24327],[7.0277,9.2453],[7.03151,9.24737],[7.04321,9.25523],[7.0449,9.25599],[7.04953,9.25695],[7.0583,9.25766],[7.07565,9.26418],[7.07852,9.26584],[7.08178,9.26959],[7.08732,9.27201],[7.09114,9.27149],[7.09884,9.27196],[7.10466,9.27048],[7.10615,9.27089],[7.10952,9.2733],[7.1126,9.27495],[7.11459,9.27555],[7.11807,9.27553],[7.12401,9.27475],[7.13365,9.27239],[7.1374,9.2695],[7.14295,9.26634],[7.14876,9.26217],[7.15463,9.25646],[7.15611,9.25391],[7.16193,9.24115],[7.16603,9.22752],[7.1672,9.2204],[7.16969,9.21345],[7.1723,9.20854],[7.17451,9.20146],[7.17686,9.19596],[7.17807,9.19121],[7.17835,9.18563],[7.18023,9.17604],[7.18545,9.16841],[7.19025,9.15938],[7.2016,9.14288],[7.20744,9.1257],[7.21297,9.11867],[7.2135,9.11639],[7.21432,9.10831],[7.21489,9.10834],[7.21834,9.11049],[7.22275,9.11153],[7.21905,9.10477],[7.21822,9.10253],[7.21773,9.09928],[7.2181,9.09116],[7.21776,9.09015],[7.21691,9.09003],[7.21643,9.09105],[7.21741,9.09196],[7.24641,9.10134],[7.25018,9.10318],[7.25677,9.10967],[7.27759,9.13201],[7.27959,9.13367],[7.28196,9.13493],[7.28459,9.13568],[7.2945,9.13713],[7.33907,9.14339],[7.34271,9.14347],[7.345,9.14301],[7.34776,9.14181],[7.37245,9.12528],[7.3764,9.12347],[7.41194,9.11866],[7.43071,9.11773],[7.46078,9.1176],[7.46623,9.11702],[7.47088,9.11589],[7.4741,9.11469],[7.50246,9.10085],[7.50468,9.09912],[7.50829,9.0944],[7.50926,9.09182],[7.51029,9.08658],[7.51154,9.08471],[7.51337,9.08297],[7.51369,9.08137],[7.51156,9.0719],[7.50714,9.07313],[7.50509,9.0729],[7.50312,9.07212],[7.50097,9.07043],[7.49994,9.06604],[7.49941,9.06507],[7.49469,9.06224],[7.49849,9.05629]]},"properties":{"route_id":"RT-LAG-ABJ","name":"Lagos to Abuja","length_km":817.49,"km_scale":1.000554,"towns":[{"name":"Lagos Mainland","km":0.0,"kind":"urban"},{"name":"Ikeja","km":20.27,"kind":"urban"},{"name":"Ikorodu","km":78.46,"kind":"highway"},{"name":"Sagamu Junction","km":93.43,"kind":"highway"},{"name":"Ibadan","km":166.45,"kind":"urban"},{"name":"Oshogbo","km":254.37,"kind":"highway"},{"name":"Ilorin","km":374.35,"kind":"urban"},{"name":"Mokwa","km":572.54,"kind":"highway"},{"name":"Abuja","km":817.49,"kind":"urban"}],"segments":[{"from_km":0.0,"to_km":32.27,"road_class":"urban","signal":{"p_drop":0.002,"p_recover":0.5}},{"from_km":32.27,"to_km":154.45,"road_class":"highway","signal":{"p_drop":0.01,"p_recover":0.25}},{"from_km":154.45,"to_km":178.45,"road_class":"urban","signal":{"p_drop":0.002,"p_recover":0.5}},{"from_km":178.45,"to_km":362.35,"road_class":"highway","signal":{"p_drop":0.01,"p_recover":0.25}},{"from_km":362.35,"to_km":386.35,"road_class":"urban","signal":{"p_drop":0.002,"p_recover":0.5}},{"from_km":386.35,"to_km":805.49,"road_class":"highway","signal":{"p_drop":0.01,"p_recover":0.25}},{"from_km":805.49,"to_km":817.49,"road_class":"urban","signal":{"p_drop":0.002,"p_recover":0.5}}],"dead_zones":[{"name":"Jebba-Mokwa stretch","from_km":430.0,"to_km":470.0,"illustrative":true},{"name":"Bida approach","from_km":640.0,"to_km":662.0,"illustrative":true}]}},{"type":"Feature","geometry":{"type":"LineString","coordinates":[[7.04975,4.81552],[7.04871,4.81655],[7.04898,4.81691],[7.05495,4.82294],[7.05779,4.82528],[7.06168,4.82714],[7.06982,4.82876],[7.07176,4.82983],[7.07062,4.83064],[7.07014,4.83162],[7.07028,4.83815],[7.06699,4.8429],[7.06507,4.84471],[7.06416,4.84854],[7.06313,4.85072],[7.06331,4.8536],[7.06583,4.85543],[7.06764,4.85622],[7.09713,4.86391],[7.10035,4.86501],[7.12132,4.87735],[7.13583,4.88211],[7.13893,4.88351],[7.14184,4.88557],[7.14854,4.89142],[7.15246,4.89355],[7.17334,4.89749],[7.17684,4.89771],[7.18391,4.89738],[7.18909,4.89863],[7.23331,4.92167],[7.23695,4.92431],[7.25661,4.94349],[7.2622,4.94935],[7.26572,4.95422],[7.27582,4.97132],[7.28863,4.98608],[7.29271,4.99016],[7.30247,4.99814],[7.30604,5.00215],[7.30863,5.00702],[7.31477,5.02517],[7.32105,5.04017],[7.32706,5.05899],[7.32762,5.06186],[7.32777,5.06532],[7.32873,5.06548],[7.33289,5.07015],[7.33775,5.07838],[7.34619,5.08472],[7.34726,5.08592],[7.35225,5.09483],[7.35351,5.0964],[7.35474,5.09731],[7.3597,5.09907],[7.36285,5.10161],[7.3686,5.10862],[7.36826,5.10865],[7.3685,5.11142],[7.36744,5.11126],[7.36741,5.11151],[7.36813,5.11188],[7.3685,5.11142],[7.37094,5.11135],[7.373,5.11409],[7.37295,5.11498],[7.37243,5.11584],[7.3498,5.13972],[7.33512,5.14555],[7.33174,5.14795],[7.33084,5.1491],[7.33055,5.15066],[7.32998,5.15119],[7.32564,5.20474],[7.32587,5.20851],[7.32761,5.21835],[7.32661,5.23381],[7.32662,5.2561],[7.32812,5.28923],[7.31205,5.28669],[7.30936,5.28674],[7.30661,5.28745],[7.30341,5.28937],[7.29948,5.29334],[7.29598,5.29809],[7.29249,5.30445],[7.28926,5.30749],[7.28806,5.30795],[7.28487,5.30815],[7.28304,5.30866],[7.27343,5.31448],[7.27068,5.31578],[7.26841,5.31632],[7.26046,5.31711],[7.25637,5.3188],[7.25432,5.32046],[7.24242,5.33254],[7.20064,5.35794],[7.19104,5.36505],[7.1543,5.3891],[7.13818,5.40574],[7.13633,5.40717],[7.12511,5.41182],[7.08311,5.43879],[7.0801,5.43999],[7.0683,5.44247],[7.055,5.45056],[7.05274,5.45246],[7.04023,5.46573],[7.03848,5.46814],[7.03714,5.47164],[7.03555,5.47376],[7.03323,5.47804],[7.03323,5.48173],[7.03222,5.48375],[7.03363,5.48463],[7.0363,5.48505],[7.03435,5.48866],[7.0335,5.48947],[7.03151,5.49041],[7.03062,5.49139],[7.03336,5.49381],[7.03584,5.49876],[7.03745,5.50557],[7.03985,5.51118],[7.04112,5.51249],[7.04529,5.51506],[7.05058,5.52112],[7.05439,5.52266],[7.06021,5.52674],[7.06207,5.53126],[7.06417,5.53441],[7.07041,5.53998],[7.0785,5.54613],[7.0808,5.54994],[7.08456,5.55315],[7.08672,5.5557],[7.08733,5.55745],[7.08756,5.56067],[7.08864,5.56314],[7.09106,5.56588],[7.09246,5.56973],[7.09677,5.57896],[7.10044,5.58448],[7.102,5.58838],[7.10515,5.59068],[7.10905,5.59502],[7.11031,5.59566],[7.11294,5.59609],[7.11839,5.60022],[7.1231,5.60213],[7.12521,5.60522],[7.12816,5.6125],[7.13067,5.61447],[7.13259,5.61986],[7.13273,5.62394],[7.13348,5.62659],[7.1357,5.63063],[7.1391,5.63507],[7.1415,5.64135],[7.14464,5.64443],[7.14602,5.6468],[7.14857,5.65518],[7.15004,5.65792],[7.15295,5.66191],[7.15352,5.66441],[7.15584,5.66884],[7.15813,5.67398],[7.15876,5.67647],[7.16132,5.68181],[7.16169,5.68345],[7.16158,5.68569],[7.16101,5.68767],[7.16115,5.68892],[7.16292,5.69093],[7.16547,5.69562],[7.16696,5.69746],[7.16751,5.7005],[7.16928,5.70455],[7.16941,5.70695],[7.17128,5.71717],[7.17223,5.71858],[7.17596,5.72056],[7.17902,5.72399],[7.18132,5.73453],[7.18036,5.74436],[7.17976,5.74605],[7.17837,5.74777],[7.17335,5.75075],[7.16785,5.75559],[7.15927,5.76239],[7.15828,5.76375],[7.156,5.76907],[7.15485,5.77041],[7.1532,5.7709],[7.14606,5.77005],[7.14417,5.77039],[7.14272,5.77175],[7.14018,5.77686],[7.13499,5.77985],[7.13303,5.78186],[7.13232,5.78331],[7.13056,5.7916],[7.12907,5.7959],[7.12635,5.80156],[7.12648,5.80425],[7.1276,5.81036],[7.12725,5.81249],[7.1222,5.81733],[7.11499,5.82129],[7.11117,5.82798],[7.10967,5.82974],[7.10533,5.83135],[7.10403,5.83226],[7.10236,5.83436],[7.09994,5.84056],[7.09904,5.84969],[7.09937,5.85372],[7.09975,5.85464],[7.10205,5.85679],[7.10227,5.85738],[7.10185,5.86519],[7.10092,5.86904],[7.10123,5.87055],[7.10244,5.87277],[7.10299,5.87467],[7.10344,5.87883],[7.10319,5.88156],[7.10409,5.88738],[7.10461,5.88926],[7.1065,5.89322],[7.107,5.89804],[7.10916,5.90432],[7.11067,5.91249],[7.10269,5.91879],[7.10183,5.92003],[7.10169,5.92312],[7.10064,5.92493],[7.10031,5.92747],[7.09776,5.93176],[7.0945,5.9412],[7.09315,5.9423],[7.08305,5.94735],[7.08203,5.95116],[7.08245,5.95503],[7.07976,5.97666],[7.08221,5.98564],[7.0866,5.99575],[7.08948,6.00099],[7.09275,6.00965],[7.09343,6.01335],[7.0941,6.01329],[7.09541,6.01415],[7.09969,6.01443],[7.10194,6.01397],[7.10585,6.01421],[7.10743,6.01211],[7.10781,6.01062],[7.1082,6.01029],[7.1089,6.01001],[7.10968,6.01027],[7.11132,6.00931],[7.11766,6.00683],[7.11132,6.00931],[7.10968,6.01027],[7.1089,6.01001],[7.1082,6.01029],[7.10781,6.01062],[7.10743,6.01211],[7.10585,6.01421],[7.10194,6.01397],[7.09969,6.01443],[7.09541,6.01415],[7.09375,6.01325],[7.0852,6.01765],[7.08247,6.0232],[7.07934,6.02685],[7.0777,6.03127],[7.0718,6.03683],[7.06929,6.0399],[7.06719,6.04507],[7.06645,6.04821],[7.06224,6.05569],[7.0605,6.06046],[7.05527,6.07136],[7.05248,6.07468],[7.04899,6.07692],[7.04788,6.07824],[7.04474,6.08664],[7.04036,6.1009],[7.03995,6.10354],[7.0378,6.10862],[7.03458,6.11201],[7.03283,6.11592],[7.02968,6.11893],[7.02872,6.122],[7.03168,6.12594],[7.03307,6.12907],[7.03491,6.13194],[7.03509,6.13402],[7.03466,6.13868],[7.03666,6.15165],[7.03729,6.15366],[7.03691,6.15559],[7.03918,6.15887],[7.03936,6.16119],[7.04281,6.16693],[7.0413,6.17021],[7.04048,6.17365],[7.04103,6.1768],[7.04457,6.18042],[7.04629,6.18312],[7.04672,6.18529],[7.04745,6.18669],[7.05055,6.18797],[7.05328,6.18778],[7.05605,6.18997],[7.05648,6.19084],[7.05651,6.1929],[7.05577,6.19452],[7.05787,6.19602],[7.06052,6.19861],[7.06341,6.19886],[7.06587,6.19979],[7.06712,6.20173],[7.06775,6.20405],[7.07044,6.20894],[7.07247,6.21352],[7.07633,6.21935],[7.07781,6.22044],[7.07878,6.22068],[7.08056,6.22044],[7.08238,6.22088],[7.08407,6.22073],[7.08737,6.21868],[7.08876,6.21862],[7.09144,6.22022],[7.09336,6.22195],[7.0967,6.22316],[7.10612,6.22892],[7.10628,6.23038],[7.10895,6.23145],[7.13516,6.24716],[7.13713,6.24851],[7.14084,6.25304],[7.14275,6.25451],[7.16317,6.26118],[7.16499,6.26128],[7.16979,6.25909],[7.17221,6.25901],[7.17444,6.2601],[7.17858,6.26335],[7.18135,6.264],[7.25471,6.26298],[7.25747,6.26418],[7.262,6.26913],[7.26379,6.2704],[7.2854,6.27648],[7.29094,6.27889],[7.29642,6.2818],[7.32201,6.31277],[7.35834,6.36743],[7.37227,6.38236],[7.38484,6.40311],[7.38672,6.40568],[7.40034,6.42148],[7.4028,6.4227],[7.41293,6.42577],[7.41701,6.42898],[7.42095,6.43273],[7.4267,6.44196],[7.42915,6.45533],[7.43253,6.46392],[7.43559,6.46808],[7.44083,6.47405],[7.44272,6.47482],[7.44518,6.47445],[7.45047,6.4709],[7.45605,6.46889],[7.46071,6.46566],[7.46207,6.46538],[7.46333,6.46569],[7.46697,6.4676],[7.46992,6.46805],[7.4753,6.4696],[7.49785,6.4721],[7.50829,6.47644],[7.51055,6.47674],[7.5178,6.47357],[7.52076,6.46903],[7.5217,6.46471],[7.52402,6.46425],[7.5303,6.46141],[7.53786,6.46111],[7.53984,6.45944],[7.54191,6.45966],[7.54352,6.46107],[7.54617,6.46056],[7.5466,6.45698],[7.54188,6.45556],[7.54027,6.45588],[7.54078,6.45836],[7.54251,6.46031],[7.54228,6.4612],[7.53059,6.46149],[7.5246,6.4641],[7.52181,6.46479],[7.52093,6.46906],[7.51757,6.47473],[7.51684,6.48251],[7.51637,6.48517],[7.51544,6.48754],[7.51497,6.49273],[7.51389,6.49631],[7.51864,6.5307],[7.52699,6.54467],[7.52982,6.55555],[7.55267,6.59274],[7.55449,6.59634],[7.55597,6.60291],[7.55633,6.61853],[7.55572,6.62364],[7.55463,6.62797],[7.54988,6.63887],[7.54642,6.64402],[7.54112,6.65418],[7.52731,6.67755],[7.51693,6.69684],[7.51247,6.71261],[7.51101,6.71613],[7.49969,6.73596],[7.49301,6.74398],[7.49138,6.74667],[7.49088,6.74702],[7.48988,6.74699],[7.48804,6.74868],[7.48367,6.74979],[7.48343,6.75168],[7.48221,6.75314],[7.48127,6.7569],[7.47875,6.75734],[7.47226,6.75507],[7.46756,6.75787],[7.4622,6.76418],[7.45177,6.77019],[7.45146,6.77084],[7.45155,6.77196],[7.44938,6.77443],[7.44698,6.77357],[7.44546,6.77349],[7.44278,6.77239],[7.43389,6.77341],[7.4333,6.77484],[7.43433,6.7763],[7.43369,6.7769],[7.43314,6.78329],[7.42993,6.78567],[7.42727,6.78962],[7.41803,6.79871],[7.41391,6.80373],[7.40906,6.82016],[7.40817,6.82539],[7.40711,6.82846],[7.40664,6.83233],[7.4068,6.84101],[7.40636,6.84274],[7.40319,6.845],[7.39985,6.84821],[7.39552,6.85072],[7.39216,6.8542],[7.38268,6.85444],[7.38481,6.85784],[7.38354,6.87243],[7.3826,6.87493],[7.3788,6.8799],[7.38,6.88412],[7.38128,6.88612],[7.38159,6.8859],[7.38158,6.88512],[7.38209,6.88503],[7.3823,6.88538],[7.38209,6.88503],[7.38158,6.88512],[7.38159,6.8859],[7.38128,6.88612],[7.38317,6.88777],[7.39284,6.88419],[7.3942,6.88447],[7.40015,6.87366],[7.4091,6.88219],[7.41041,6.88282],[7.4292,6.88424],[7.4562,6.88529],[7.46001,6.88713],[7.46891,6.89517],[7.47894,6.89973],[7.49397,6.90459],[7.50099,6.90949],[7.50701,6.91176],[7.50801,6.91263],[7.51573,6.92003],[7.51836,6.92662],[7.52694,6.94068],[7.53099,6.95019],[7.53411,6.96523],[7.53547,6.96901],[7.53685,6.97162],[7.53981,6.97486],[7.54464,6.9784],[7.55706,6.98409],[7.57013,6.99181],[7.57251,6.99406],[7.58178,7.00459],[7.58993,7.01562],[7.59166,7.01843],[7.59839,7.03366],[7.60612,7.048],[7.61542,7.0594],[7.62343,7.07281],[7.63378,7.08448],[7.64254,7.09596],[7.6443,7.09924],[7.64791,7.10851],[7.65166,7.12167],[7.6535,7.12626],[7.65978,7.13532],[7.66152,7.13689],[7.66351,7.13794],[7.6763,7.1413],[7.6905,7.14567],[7.71433,7.14886],[7.71815,7.14845],[7.72567,7.1452],[7.72778,7.14487],[7.72975,7.14501],[7.74867,7.15168],[7.75154,7.15388],[7.75426,7.1578],[7.75685,7.1591],[7.76172,7.15926],[7.76916,7.15872],[7.77736,7.15919],[7.78238,7.15809],[7.78585,7.15797],[7.79068,7.15868],[7.79617,7.16126],[7.79794,7.16164],[7.80094,7.16149],[7.80544,7.15996],[7.80723,7.15979],[7.82271,7.16146],[7.83936,7.15942],[7.84953,7.1596],[7.85919,7.15643],[7.86803,7.15455],[7.8795,7.15436],[7.88894,7.15236],[7.89775,7.15249],[7.89966,7.15165],[7.90584,7.14755],[7.91047,7.14692],[7.9137,7.14535],[7.91583,7.14491],[7.92782,7.14698],[7.9364,7.15029],[7.94504,7.15013],[7.94994,7.14883],[7.96091,7.14987],[7.96367,7.15086],[7.96942,7.15416],[7.98337,7.15679],[7.98672,7.15668],[7.99161,7.15532],[7.99278,7.15533],[8.00759,7.1618],[8.0193,7.16818],[8.03179,7.17279],[8.04181,7.17936],[8.05725,7.18814],[8.06637,7.19552],[8.07659,7.19972],[8.08292,7.20502],[8.08538,7.20776],[8.08821,7.21192],[8.08945,7.21295],[8.10153,7.21775],[8.10424,7.21787],[8.10637,7.21723],[8.12146,7.20936],[8.12761,7.20395],[8.13019,7.19913],[8.13209,7.19379],[8.13439,7.19078],[8.13498,7.19025],[8.13779,7.18959],[8.14046,7.19098],[8.14386,7.19175],[8.14677,7.1934],[8.1481,7.19687],[8.14948,7.1984],[8.15337,7.20641],[8.15438,7.20754],[8.15611,7.20811],[8.16087,7.20799],[8.16419,7.20932],[8.16771,7.20847],[8.18312,7.20979],[8.20156,7.22034],[8.20773,7.23097],[8.20871,7.23422],[8.21036,7.23601],[8.21219,7.23664],[8.22884,7.23845],[8.23067,7.23912],[8.24297,7.24795],[8.24394,7.2493],[8.24469,7.25293],[8.24597,7.25402],[8.25104,7.25626],[8.25413,7.2569],[8.25984,7.25771],[8.27214,7.25848],[8.27338,7.25924],[8.27631,7.2625],[8.27819,7.26637],[8.27962,7.26761],[8.2814,7.26774],[8.28447,7.2656],[8.2855,7.26528],[8.28701,7.26538],[8.30123,7.27341],[8.32076,7.28036],[8.32554,7.28154],[8.33222,7.28026],[8.33428,7.28084],[8.33813,7.28121],[8.35294,7.28377],[8.3621,7.2864],[8.36433,7.2859],[8.36758,7.28364],[8.3696,7.2834],[8.37727,7.28541],[8.38154,7.28548],[8.38785,7.28489],[8.40017,7.28772],[8.40158,7.28745],[8.41262,7.28215],[8.41387,7.28203],[8.41884,7.28369],[8.42442,7.28647],[8.43281,7.28842],[8.45826,7.29666],[8.4669,7.29718],[8.47431,7.29656],[8.47877,7.29782],[8.48311,7.29625],[8.48539,7.29626],[8.48572,7.30441],[8.48618,7.30554],[8.49002,7.31068],[8.4958,7.31409],[8.50203,7.3208],[8.50988,7.32439],[8.51777,7.33285],[8.52156,7.33468],[8.53486,7.33677],[8.55301,7.34642],[8.55401,7.34765],[8.56106,7.36133],[8.56564,7.36651],[8.56872,7.37102],[8.58011,7.38161],[8.58112,7.38304],[8.58196,7.39138],[8.58066,7.39665],[8.58017,7.40457],[8.58104,7.41289],[8.57986,7.42201],[8.58029,7.42413],[8.59761,7.44387],[8.59877,7.44463],[8.60196,7.44542],[8.60563,7.44824],[8.60653,7.44979],[8.6077,7.45373],[8.60913,7.46071],[8.60881,7.46521],[8.60107,7.49694],[8.59715,7.50844],[8.59618,7.51253],[8.59658,7.51481],[8.60073,7.52529],[8.60324,7.53363],[8.60328,7.54272],[8.6027,7.55616],[8.60183,7.56228],[8.59937,7.57087],[8.59248,7.57884],[8.58527,7.58958],[8.57762,7.59848],[8.57307,7.61365],[8.57256,7.6178],[8.5638,7.6344],[8.55827,7.64136],[8.55704,7.64475],[8.55451,7.65557],[8.54923,7.66431],[8.54723,7.66662],[8.53963,7.67376],[8.53843,7.67748],[8.538,7.68012],[8.53557,7.68578],[8.53514,7.69188],[8.53536,7.69428],[8.54657,7.72757],[8.5378,7.72565],[8.53613,7.72561],[8.53397,7.73225],[8.52744,7.73809],[8.52695,7.73917],[8.5151,7.74087],[8.51592,7.73725],[8.52231,7.73295]]},"properties":{"route_id":"RT-PHC-MKD","name":"Port Harcourt to Makurdi","length_km":564.19,"km_scale":1.000257,"towns":[{"name":"Port Harcourt","km":0.0,"kind":"urban"},{"name":"Elele","km":53.68,"kind":"highway"},{"name":"Owerri","km":117.5,"kind":"urban"},{"name":"Okigwe","km":192.5,"kind":"highway"},{"name":"Enugu","km":290.61,"kind":"urban"},{"name":"Nsukka","km":352.81,"kind":"highway"},{"name":"Makurdi","km":564.19,"kind":"urban"}],"segments":[{"from_km":0.0,"to_km":12.0,"road_class":"urban","signal":{"p_drop":0.002,"p_recover":0.5}},{"from_km":12.0,"to_km":105.5,"road_class":"highway","signal":{"p_drop":0.01,"p_recover":0.25}},{"from_km":105.5,"to_km":129.5,"road_class":"urban","signal":{"p_drop":0.002,"p_recover":0.5}},{"from_km":129.5,"to_km":278.61,"road_class":"highway","signal":{"p_drop":0.01,"p_recover":0.25}},{"from_km":278.61,"to_km":302.61,"road_class":"urban","signal":{"p_drop":0.002,"p_recover":0.5}},{"from_km":302.61,"to_km":552.19,"road_class":"highway","signal":{"p_drop":0.01,"p_recover":0.25}},{"from_km":552.19,"to_km":564.19,"road_class":"urban","signal":{"p_drop":0.002,"p_recover":0.5}}],"dead_zones":[{"name":"Otukpo approach","from_km":430.0,"to_km":465.0,"illustrative":true}]}},{"type":"Feature","geometry":{"type":"LineString","coordinates":[[5.61749,6.33918],[5.61787,6.33959],[5.61831,6.33937],[5.62044,6.33766],[5.62087,6.33683],[5.62085,6.33506],[5.62185,6.33416],[5.62153,6.33264],[5.62226,6.33211],[5.62333,6.33208],[5.62393,6.33328],[5.64399,6.35088],[5.64918,6.35187],[5.65087,6.35151],[5.65294,6.35017],[5.65443,6.34965],[5.65975,6.35007],[5.6599,6.35051],[5.66756,6.35579],[5.67315,6.36041],[5.68302,6.36759],[5.69944,6.37783],[5.72039,6.38641],[5.73284,6.38906],[5.73557,6.39005],[5.76347,6.407],[5.76659,6.40928],[5.76828,6.41125],[5.784,6.43477],[5.79954,6.4491],[5.8063,6.45986],[5.8096,6.46249],[5.81839,6.46525],[5.82797,6.47105],[5.83782,6.48056],[5.84998,6.49519],[5.85212,6.49909],[5.85994,6.52321],[5.86088,6.52522],[5.87523,6.54386],[5.88406,6.55457],[5.89304,6.5683],[5.89511,6.56942],[5.92842,6.57833],[5.93134,6.57953],[5.97288,6.61129],[5.98052,6.6154],[5.98215,6.61661],[5.9832,6.61853],[5.98337,6.6204],[5.97985,6.6341],[5.97961,6.63633],[5.97989,6.63929],[5.98093,6.64258],[5.99182,6.66583],[5.9937,6.67423],[5.99416,6.68395],[5.99541,6.68769],[5.99784,6.69111],[6.04027,6.73526],[6.04188,6.73754],[6.04587,6.74568],[6.05041,6.7507],[6.05174,6.75175],[6.05668,6.75358],[6.06111,6.75414],[6.06502,6.75217],[6.09187,6.74225],[6.09408,6.7436],[6.09439,6.74173],[6.11034,6.74142],[6.11211,6.74082],[6.11509,6.73864],[6.11677,6.73795],[6.12704,6.73689],[6.13448,6.73754],[6.17461,6.73382],[6.20777,6.73585],[6.21108,6.73646],[6.21382,6.73765],[6.21693,6.73995],[6.22842,6.75315],[6.23477,6.76517],[6.23546,6.76798],[6.2361,6.77652],[6.23891,6.78388],[6.24107,6.78654],[6.24895,6.79245],[6.25571,6.79932],[6.25653,6.80082],[6.25695,6.80958],[6.25877,6.82017],[6.259,6.82551],[6.25833,6.82803],[6.255,6.83323],[6.25285,6.83847],[6.25225,6.84183],[6.25253,6.84538],[6.25435,6.85026],[6.27602,6.89808],[6.27686,6.90085],[6.27708,6.90343],[6.27679,6.90619],[6.27083,6.92839],[6.27048,6.93097],[6.27222,6.96791],[6.27272,6.97062],[6.27503,6.97722],[6.2755,6.97952],[6.27793,7.01382],[6.27778,7.01659],[6.27252,7.05273],[6.27355,7.05563],[6.27724,7.05904],[6.27825,7.06097],[6.27843,7.06271],[6.27717,7.07582],[6.27795,7.07943],[6.28021,7.08491],[6.27886,7.08239],[6.27809,7.08512],[6.27749,7.08597],[6.27552,7.08711],[6.27388,7.08739],[6.24275,7.08399],[6.24,7.08467],[6.22612,7.09513],[6.22461,7.09668],[6.21812,7.11746],[6.21546,7.12228],[6.21403,7.12348],[6.19739,7.13129],[6.17703,7.14839],[6.17581,7.15006],[6.1714,7.16078],[6.16386,7.17012],[6.16155,7.16802],[6.15949,7.16939],[6.15888,7.17188],[6.15854,7.17209],[6.15583,7.17325],[6.15259,7.17359],[6.15028,7.17521],[6.1477,7.1759],[6.14442,7.17738],[6.14244,7.17688],[6.13998,7.17528],[6.13877,7.17396],[6.13721,7.17379],[6.13597,7.17435],[6.13515,7.17432],[6.13392,7.17352],[6.12892,7.17438],[6.12719,7.17311],[6.12768,7.17286],[6.12712,7.17203],[6.12718,7.1709],[6.12712,7.17203],[6.12768,7.17286],[6.12719,7.17311],[6.12892,7.17438],[6.13392,7.17352],[6.13515,7.17432],[6.13597,7.17435],[6.13721,7.17379],[6.13877,7.17396],[6.13998,7.17528],[6.14244,7.17688],[6.14442,7.17738],[6.1477,7.1759],[6.15028,7.17521],[6.15259,7.17359],[6.15583,7.17325],[6.15888,7.17188],[6.15859,7.17245],[6.16068,7.17399],[6.15807,7.17782],[6.14157,7.22324],[6.13338,7.23607],[6.13198,7.23921],[6.12875,7.25025],[6.12751,7.25253],[6.10755,7.27069],[6.09933,7.27726],[6.09241,7.28104],[6.09054,7.28387],[6.09012,7.28615],[6.09031,7.28793],[6.09272,7.2933],[6.09337,7.29605],[6.09335,7.30718],[6.09196,7.31498],[6.08619,7.33182],[6.08422,7.34651],[6.08353,7.34807],[6.08035,7.35193],[6.07975,7.35341],[6.07971,7.35502],[6.08103,7.36012],[6.08164,7.38132],[6.08135,7.38794],[6.0808,7.39005],[6.07376,7.40388],[6.07259,7.42009],[6.07168,7.42271],[6.06871,7.42832],[6.07229,7.43081],[6.07393,7.43264],[6.07552,7.43521],[6.0777,7.43673],[6.08112,7.43695],[6.08271,7.43751],[6.09922,7.44661],[6.1041,7.44982],[6.107,7.45086],[6.1141,7.45472],[6.13249,7.4627],[6.13712,7.46639],[6.14166,7.46759],[6.15368,7.4743],[6.15439,7.47535],[6.15472,7.477],[6.15487,7.4898],[6.15452,7.49281],[6.1549,7.49374],[6.15647,7.49406],[6.15991,7.49225],[6.16564,7.49059],[6.17048,7.49235],[6.17145,7.49323],[6.17375,7.49925],[6.17403,7.50134],[6.1711,7.51485],[6.1713,7.51685],[6.17225,7.51918],[6.17742,7.52182],[6.19074,7.53359],[6.19398,7.53742],[6.19806,7.53986],[6.19891,7.54122],[6.19945,7.54401],[6.20157,7.54806],[6.20412,7.54877],[6.21113,7.54904],[6.2178,7.55055],[6.2212,7.55179],[6.22249,7.55198],[6.2242,7.5516],[6.22801,7.55264],[6.22934,7.55628],[6.23046,7.55732],[6.2289,7.55837],[6.22913,7.5599],[6.23072,7.56095],[6.23111,7.56076],[6.23178,7.56199],[6.23327,7.56248],[6.23285,7.56306],[6.23304,7.56339],[6.23352,7.56348],[6.23398,7.56285],[6.23462,7.5628],[6.23554,7.56358],[6.23591,7.56331],[6.23696,7.56364],[6.23513,7.5676],[6.23335,7.56933],[6.23012,7.57365],[6.22737,7.57629],[6.22485,7.57814],[6.22302,7.5804],[6.22313,7.58307],[6.22089,7.58661],[6.22088,7.5873],[6.22196,7.59206],[6.22288,7.59412],[6.23539,7.5995],[6.27358,7.61333],[6.27737,7.61538],[6.28317,7.61973],[6.28608,7.62111],[6.29057,7.62204],[6.31456,7.62532],[6.31892,7.6266],[6.32339,7.62913],[6.36503,7.65586],[6.42727,7.68222],[6.43017,7.6847],[6.4508,7.71023],[6.45315,7.71249],[6.45556,7.71399],[6.48038,7.7249],[6.48404,7.72761],[6.49384,7.73872],[6.51255,7.76645],[6.52299,7.78893],[6.52504,7.79208],[6.52715,7.79432],[6.56296,7.82493],[6.56668,7.82658],[6.57115,7.82703],[6.59906,7.82245],[6.61631,7.8218],[6.61993,7.82217],[6.63531,7.82774],[6.66256,7.83578],[6.66574,7.83751],[6.6772,7.84573],[6.68417,7.85139],[6.68848,7.85319],[6.69561,7.8547],[6.70043,7.85464],[6.70611,7.85308],[6.70856,7.85275],[6.71872,7.85315],[6.72228,7.8526],[6.74554,7.84232],[6.74688,7.84239],[6.74821,7.84299],[6.75355,7.84633],[6.75637,7.84882],[6.75799,7.85117],[6.75891,7.85324],[6.76023,7.85983],[6.76038,7.86253],[6.75976,7.86803],[6.76017,7.87542],[6.75936,7.87895],[6.75547,7.88634],[6.7541,7.88976],[6.7536,7.89249],[6.75306,7.90069],[6.74919,7.91415],[6.74887,7.91852],[6.74933,7.92106],[6.7571,7.94668],[6.75959,7.97009],[6.77215,8.00149],[6.77215,8.00373],[6.77124,8.00601],[6.76942,8.00792],[6.76383,8.01247],[6.76211,8.0144],[6.76032,8.01767],[6.75946,8.02145],[6.75978,8.02522],[6.76351,8.0428],[6.76502,8.04637],[6.76891,8.05133],[6.76615,8.04836],[6.76443,8.0454],[6.76336,8.04273],[6.7596,8.02556],[6.75927,8.02235],[6.75954,8.01977],[6.7604,8.01701],[6.76209,8.01417],[6.76188,8.01384],[6.75939,8.01124],[6.75721,8.00946],[6.75599,8.00897],[6.75602,8.00806],[6.75557,8.00725],[6.75322,8.00699],[6.75254,8.0066],[6.75049,8.00662],[6.7497,8.00734],[6.7458,8.0067],[6.74345,8.00845],[6.74201,8.00893],[6.7416,8.01037],[6.74055,8.01099],[6.73979,8.01081],[6.73924,8.01109],[6.73979,8.01081],[6.74055,8.01099],[6.7416,8.01037],[6.74201,8.00893],[6.74345,8.00845],[6.7458,8.0067],[6.7497,8.00734],[6.75049,8.00662],[6.75254,8.0066],[6.75322,8.00699],[6.75557,8.00725],[6.75602,8.00806],[6.75599,8.00897],[6.75721,8.00946],[6.76065,8.01262],[6.76243,8.01192],[6.76405,8.01206],[6.77032,8.00692],[6.77136,8.00561],[6.77208,8.0032],[6.77195,8.00119],[6.77143,7.99963],[6.75931,7.96974],[6.75705,7.94724],[6.74923,7.92131],[6.74869,7.91824],[6.74917,7.91355],[6.7529,7.90072],[6.75395,7.88973],[6.75561,7.88576],[6.75898,7.87946],[6.76003,7.87536],[6.75962,7.86798],[6.76022,7.86115],[6.75953,7.85636],[6.7588,7.85347],[6.75762,7.85083],[6.75631,7.84888],[6.75433,7.84701],[6.75637,7.84882],[6.75865,7.85259],[6.75934,7.85466],[6.76037,7.86113],[6.75976,7.86803],[6.76023,7.87317],[6.76007,7.87623],[6.7591,7.87955],[6.75547,7.88634],[6.7541,7.88976],[6.7536,7.89249],[6.75306,7.90069],[6.74919,7.91415],[6.74887,7.91852],[6.74933,7.92106],[6.7571,7.94668],[6.75959,7.97009],[6.77154,7.99954],[6.77225,8.00247],[6.77189,8.0047],[6.77088,8.00649],[6.76383,8.01247],[6.76116,8.01586],[6.75969,8.01986],[6.75961,8.02431],[6.76345,8.04258],[6.76502,8.04637],[6.76891,8.05133],[6.79292,8.07512],[6.79423,8.07691],[6.79574,8.08003],[6.79661,8.08355],[6.79648,8.0872],[6.79536,8.09078],[6.7936,8.0937],[6.78892,8.09927],[6.78726,8.10234],[6.78649,8.10469],[6.78492,8.11227],[6.78034,8.1451],[6.78036,8.14804],[6.78079,8.15017],[6.78684,8.16421],[6.78918,8.17554],[6.7901,8.17789],[6.79434,8.18567],[6.79797,8.19785],[6.79971,8.20055],[6.81436,8.21647],[6.82276,8.23024],[6.82335,8.23401],[6.82224,8.24426],[6.82273,8.24724],[6.82386,8.25001],[6.85304,8.29805],[6.8553,8.30009],[6.8573,8.30119],[6.866,8.30337],[6.86937,8.3048],[6.8719,8.30668],[6.87387,8.30903],[6.87968,8.32031],[6.88356,8.32878],[6.88402,8.33153],[6.88438,8.34537],[6.885,8.34783],[6.88631,8.35047],[6.88789,8.35246],[6.88985,8.35416],[6.93683,8.38767],[6.93933,8.39024],[6.94078,8.39264],[6.94192,8.39627],[6.94591,8.42079],[6.9461,8.42439],[6.94498,8.42884],[6.93646,8.44515],[6.93565,8.44797],[6.93545,8.45049],[6.9361,8.45436],[6.94191,8.47064],[6.94325,8.4755],[6.94386,8.47563],[6.9483,8.47418],[6.96581,8.47014],[6.98508,8.46496],[6.98526,8.46532],[6.98466,8.46696],[6.98329,8.47586],[6.98273,8.48312],[6.98033,8.48587],[6.97997,8.4892],[6.98062,8.49181],[6.98475,8.49632],[6.99125,8.50628],[6.99639,8.51179],[6.99878,8.51384],[7.00303,8.5167],[7.00449,8.51817],[7.00877,8.52443],[7.01023,8.52587],[7.02223,8.52866],[7.02528,8.53038],[7.02688,8.5318],[7.03359,8.53532],[7.03338,8.53667],[7.03533,8.53476],[7.04,8.53225],[7.04429,8.52925],[7.04837,8.5255],[7.05021,8.52442],[7.05202,8.52388],[7.05893,8.52332],[7.06155,8.52262],[7.06677,8.5201],[7.08005,8.51752],[7.09621,8.5119],[7.09914,8.51243],[7.10561,8.5156],[7.10837,8.51557],[7.11014,8.51495],[7.11165,8.51363],[7.11396,8.51257],[7.12304,8.51147],[7.12452,8.51056],[7.12569,8.50908],[7.13223,8.5042],[7.13532,8.50266],[7.13556,8.50218],[7.13679,8.50195],[7.14442,8.4983],[7.14749,8.49837],[7.1532,8.50008],[7.1606,8.50078],[7.16141,8.50127],[7.16392,8.50161],[7.16707,8.5005],[7.17072,8.50041],[7.17322,8.49922],[7.17568,8.49613],[7.17711,8.4951],[7.18001,8.49409],[7.18562,8.49323],[7.18816,8.49195],[7.19264,8.49088],[7.19561,8.48916],[7.1924,8.48499],[7.18888,8.48165],[7.18712,8.47887],[7.18537,8.47763],[7.185,8.47646],[7.18465,8.47086],[7.18336,8.46899],[7.18165,8.46543],[7.1812,8.46297],[7.18026,8.46077],[7.17754,8.45767],[7.17751,8.45635],[7.17852,8.45506],[7.17916,8.45481],[7.17957,8.45388],[7.1795,8.45346],[7.17792,8.45223],[7.1772,8.4504],[7.17737,8.44832],[7.17799,8.44725],[7.17709,8.44402],[7.17802,8.44018],[7.17678,8.43746],[7.17578,8.436],[7.17357,8.43401],[7.17112,8.43051],[7.16958,8.42675],[7.16858,8.42605],[7.16798,8.42363],[7.16797,8.41972],[7.16578,8.41667],[7.15978,8.41029],[7.15541,8.40459],[7.15364,8.40486],[7.14644,8.40433],[7.14322,8.40487],[7.12971,8.40122],[7.11979,8.40313],[7.11799,8.40306],[7.11126,8.40054],[7.10236,8.39519],[7.08801,8.3915],[7.08184,8.38556],[7.08066,8.38507],[7.07892,8.38556],[7.07619,8.38831],[7.06849,8.40215],[7.06549,8.4048],[7.06293,8.40935],[7.05722,8.41357],[7.04558,8.4287],[7.04249,8.4342],[7.04162,8.44066],[7.04117,8.4419],[7.03568,8.44782],[7.02264,8.45478],[7.01592,8.45532],[7.01522,8.45662],[7.01612,8.45915],[7.01582,8.45992],[7.01515,8.46034],[7.01411,8.46018],[7.01208,8.45857],[7.01062,8.45841],[6.98482,8.46485],[6.96769,8.46967],[6.9483,8.47418],[6.9434,8.47584],[6.94259,8.48142],[6.91093,8.59079],[6.91049,8.59488],[6.92089,8.65054],[6.93218,8.69289],[6.93471,8.69923],[6.95698,8.74354],[6.96006,8.74775],[7.00561,8.79461],[7.01034,8.79818],[7.04143,8.81683],[7.04506,8.82022],[7.04721,8.82472],[7.05441,8.85546],[7.07202,8.8948],[7.07384,8.89762],[7.08689,8.91403],[7.08871,8.9169],[7.08972,8.92001],[7.09307,8.93872],[7.09443,8.94212],[7.09654,8.94495],[7.099,8.94694],[7.11664,8.95498],[7.11956,8.95696],[7.1216,8.95893],[7.13893,8.97906],[7.15207,9.00342],[7.15417,9.00687],[7.15491,9.00743],[7.1565,9.00762],[7.15894,9.00638],[7.17567,8.99563],[7.20559,8.97852],[7.2536,8.95693],[7.27909,8.94724],[7.3019,8.94021],[7.30755,8.93922],[7.31328,8.93961],[7.31932,8.94146],[7.32551,8.94519],[7.33363,8.95136],[7.34638,8.96285],[7.34949,8.96519],[7.38586,8.98318],[7.40226,8.99316],[7.41015,9.00012],[7.43398,9.02559],[7.44071,9.03072],[7.44743,9.03484],[7.4496,9.03561],[7.45005,9.03875],[7.45137,9.04081],[7.46624,9.04517],[7.4704,9.04683],[7.48405,9.05489],[7.48055,9.06067],[7.47886,9.06246],[7.48024,9.0601]]},"properties":{"route_id":"RT-BEN-ABJ","name":"Benin to Abuja","length_km":616.23,"km_scale":0.999525,"towns":[{"name":"Benin City","km":0.0,"kind":"urban"},{"name":"Ekpoma","km":76.88,"kind":"highway"},{"name":"Auchi","km":156.96,"kind":"urban"},{"name":"Okene","km":219.18,"kind":"highway"},{"name":"Lokoja","km":324.12,"kind":"urban"},{"name":"Abaji","km":458.21,"kind":"highway"},{"name":"Abuja","km":616.23,"kind":"urban"}],"segments":[{"from_km":0.0,"to_km":12.0,"road_class":"urban","signal":{"p_drop":0.002,"p_recover":0.5}},{"from_km":12.0,"to_km":144.96,"road_class":"highway","signal":{"p_drop":0.01,"p_recover":0.25}},{"from_km":144.96,"to_km":168.96,"road_class":"urban","signal":{"p_drop":0.002,"p_recover":0.5}},{"from_km":168.96,"to_km":312.12,"road_class":"highway","signal":{"p_drop":0.01,"p_recover":0.25}},{"from_km":312.12,"to_km":336.12,"road_class":"urban","signal":{"p_drop":0.002,"p_recover":0.5}},{"from_km":336.12,"to_km":604.23,"road_class":"highway","signal":{"p_drop":0.01,"p_recover":0.25}},{"from_km":604.23,"to_km":616.23,"road_class":"urban","signal":{"p_drop":0.002,"p_recover":0.5}}],"dead_zones":[{"name":"Okene hills","from_km":180.0,"to_km":205.0,"illustrative":true},{"name":"Lokoja-Abaji gap","from_km":360.0,"to_km":395.0,"illustrative":true}]}}]}
