{"type":"FeatureCollection","attribution":"Street geometry \u00a9 OpenStreetMap contributors (ODbL), routed by the OSRM demo server. Stops are synthetic.","features":[{"type":"Feature","geometry":{"type":"LineString","coordinates":[[3.36033,6.59668],[3.35983,6.59622],[3.36094,6.59475],[3.36071,6.59447],[3.36155,6.59342],[3.36006,6.59225],[3.35936,6.59162],[3.36106,6.5896],[3.36202,6.58832],[3.36379,6.58632],[3.36385,6.58615],[3.36379,6.58604],[3.36202,6.58485],[3.36169,6.58468],[3.36128,6.58458],[3.36031,6.58455],[3.35879,6.58397],[3.35859,6.58399],[3.35848,6.58411],[3.35687,6.58796],[3.35643,6.58861],[3.35578,6.58927],[3.35488,6.58988],[3.35457,6.59001],[3.35367,6.59027],[3.35331,6.59034],[3.3532,6.59032],[3.35316,6.59026],[3.35329,6.59016],[3.35429,6.58991],[3.35508,6.58957],[3.35582,6.58903],[3.35621,6.58864],[3.35655,6.5882],[3.3568,6.58778],[3.36031,6.57919],[3.3566,6.57768],[3.35517,6.58122],[3.35683,6.58189],[3.35827,6.57836],[3.36031,6.57919],[3.36236,6.57421],[3.3628,6.57361],[3.3631,6.57337],[3.36354,6.57312],[3.36713,6.5718],[3.36727,6.57166],[3.36739,6.57138],[3.3671,6.57057],[3.3668,6.5693],[3.36657,6.5674],[3.3665,6.56599],[3.36654,6.56444],[3.36669,6.56383],[3.36672,6.56173],[3.36685,6.55812],[3.36699,6.54939],[3.36718,6.54185],[3.36722,6.53606],[3.36743,6.52642],[3.36748,6.52363],[3.36735,6.52236],[3.36741,6.52023],[3.36747,6.51958],[3.3678,6.51851],[3.36858,6.51657],[3.3693,6.5169],[3.37105,6.51758],[3.37146,6.51765],[3.37473,6.51629],[3.37509,6.51611],[3.37533,6.51594],[3.37556,6.51566],[3.37587,6.51501],[3.37739,6.51115],[3.37747,6.51119],[3.37706,6.51212],[3.37611,6.51458],[3.37624,6.51474],[3.37745,6.51525],[3.37816,6.51549],[3.38114,6.51681],[3.38211,6.51714],[3.38263,6.51725],[3.38286,6.51657],[3.38309,6.51665],[3.38286,6.51657],[3.38263,6.51725],[3.38211,6.51714],[3.3815,6.51695],[3.37816,6.51549],[3.37745,6.51525],[3.37887,6.51178],[3.37739,6.51115],[3.37833,6.50882],[3.37842,6.50856],[3.37842,6.50838],[3.37723,6.50261],[3.37724,6.50208],[3.37907,6.49761],[3.37934,6.49733],[3.38001,6.497],[3.38016,6.49684],[3.38025,6.49666],[3.3818,6.49267],[3.38227,6.49126],[3.3834,6.49178],[3.38427,6.49212],[3.38513,6.49234],[3.38582,6.49244],[3.38652,6.49244],[3.38743,6.49233],[3.38797,6.49221],[3.38869,6.49196],[3.38912,6.49176],[3.38997,6.49125],[3.39036,6.49095],[3.39092,6.49038],[3.39204,6.48912],[3.39376,6.48685],[3.39394,6.48648],[3.39407,6.48582],[3.39408,6.48546],[3.39396,6.48491],[3.39311,6.4832],[3.39188,6.48086],[3.39136,6.47965],[3.39083,6.47806],[3.39052,6.47672],[3.39038,6.47585],[3.39027,6.47496],[3.39021,6.47344],[3.39024,6.47248],[3.3904,6.47104],[3.39077,6.46919],[3.39122,6.46772],[3.39159,6.46678],[3.39228,6.46539],[3.39307,6.46418],[3.39364,6.46349],[3.39401,6.46312],[3.39427,6.46275],[3.39454,6.46225],[3.39476,6.4615],[3.39478,6.46116],[3.39473,6.46078],[3.3946,6.46039],[3.39442,6.46009],[3.39412,6.45977],[3.39383,6.45955],[3.39337,6.45934],[3.39325,6.45933],[3.39311,6.45939],[3.39411,6.45791],[3.39367,6.45692],[3.39362,6.45659],[3.39362,6.45603],[3.39194,6.4551],[3.39278,6.45399],[3.3935,6.45344],[3.39405,6.4532],[3.39392,6.45269],[3.39394,6.45245],[3.39407,6.45234],[3.39417,6.45213],[3.39425,6.45207],[3.39529,6.45175],[3.39497,6.45052],[3.39399,6.44854],[3.39621,6.44709],[3.39732,6.44623],[3.39764,6.4459],[3.39736,6.4455],[3.3972,6.44519],[3.39722,6.44492],[3.39737,6.44468],[3.399,6.4435],[3.39968,6.44293],[3.40048,6.44212],[3.40086,6.44181],[3.40126,6.44159],[3.40227,6.44117],[3.40472,6.43969],[3.40589,6.43888],[3.40601,6.43872],[3.40681,6.43816],[3.40731,6.43773],[3.40761,6.43736],[3.40766,6.43712],[3.40776,6.43704],[3.40793,6.43704],[3.40823,6.43739],[3.40898,6.43784],[3.40968,6.43807],[3.41017,6.4381],[3.4106,6.43806],[3.41096,6.43797],[3.41296,6.43694],[3.41358,6.43668],[3.41418,6.43649],[3.41526,6.43628],[3.41594,6.43621],[3.41694,6.43623],[3.41781,6.43637],[3.41933,6.43669],[3.41934,6.43569],[3.42009,6.43578],[3.42023,6.43495],[3.42027,6.43438],[3.42016,6.43353],[3.41961,6.43144],[3.42286,6.43059],[3.42301,6.43051],[3.42317,6.43032],[3.42319,6.43022],[3.42321,6.42916],[3.42398,6.42916],[3.42397,6.43495],[3.42406,6.43587],[3.42426,6.43671],[3.42439,6.43684],[3.42455,6.43689],[3.42465,6.4369],[3.42498,6.43677],[3.42509,6.4368],[3.42548,6.43776],[3.4256,6.43831],[3.42566,6.43878],[3.4258,6.43891],[3.42604,6.43902],[3.42721,6.43927],[3.42966,6.43943],[3.4306,6.43955],[3.43171,6.43982],[3.43372,6.44048],[3.43439,6.44052],[3.43484,6.44043],[3.43535,6.4402],[3.43682,6.43905],[3.43908,6.4378],[3.44114,6.43642],[3.44256,6.43564],[3.44339,6.43534],[3.4443,6.43523],[3.44489,6.43525],[3.44919,6.43632],[3.45016,6.43673],[3.4518,6.43761],[3.45218,6.43776],[3.45253,6.4378],[3.45312,6.43772],[3.45351,6.43753],[3.45381,6.43729],[3.45446,6.43662],[3.4546,6.43656],[3.45504,6.43615],[3.45536,6.43609],[3.45637,6.4372],[3.45656,6.43774],[3.45659,6.43826],[3.45647,6.43879],[3.45615,6.43931],[3.45593,6.43951],[3.45467,6.44044],[3.45441,6.44076],[3.4543,6.44103],[3.45426,6.44144],[3.45443,6.4431],[3.45451,6.44338],[3.45465,6.44363],[3.45496,6.44394],[3.4594,6.44618],[3.46069,6.4466],[3.46091,6.44664],[3.46124,6.44658],[3.4616,6.44676],[3.46874,6.44775],[3.46967,6.44781],[3.47104,6.44781],[3.47104,6.44747],[3.47086,6.44748],[3.47086,6.44738],[3.47052,6.44739],[3.47052,6.4475]]},"properties":{"route_id":"LAG-U1","name":"Lagos: Ikeja hub to the Island, morning round","kind":"urban","city":"Lagos","source":"osrm","length_km":39.276,"km_scale":0.997843,"towns":[{"name":"Ikeja cold-store hub (Oregun industrial area)","km":0.0,"kind":"urban","depot":true,"stop_id":"HUB-LAG-IKJ","stop_type":"hub","window":null},{"name":"Ikeja GRA supermarket","km":5.415,"kind":"urban","depot":false,"stop_id":"LAG-U1-01","stop_type":"supermarket","window":"06:30-09:00"},{"name":"Yaba hospital pharmacy","km":16.517,"kind":"urban","depot":false,"stop_id":"LAG-U1-02","stop_type":"hospital","window":"07:00-09:30"},{"name":"Lagos Island open market","km":25.672,"kind":"urban","depot":false,"stop_id":"LAG-U1-03","stop_type":"open_market","window":"06:00-09:00"},{"name":"Victoria Island hotel","km":31.089,"kind":"urban","depot":false,"stop_id":"LAG-U1-04","stop_type":"hotel","window":"07:00-11:00"},{"name":"Lekki Phase 1 quick-service restaurant","km":39.276,"kind":"urban","depot":false,"stop_id":"LAG-U1-05","stop_type":"qsr","window":"08:00-10:30"}],"segments":[{"from_km":0.0,"to_km":8.803,"road_class":"urban","signal":{"p_drop":0.002,"p_recover":0.5}},{"from_km":8.803,"to_km":10.173,"road_class":"slow_corridor","signal":{"p_drop":0.002,"p_recover":0.5},"name":"Ikorodu Road"},{"from_km":10.173,"to_km":14.686,"road_class":"urban","signal":{"p_drop":0.002,"p_recover":0.5}},{"from_km":14.686,"to_km":16.251,"road_class":"slow_corridor","signal":{"p_drop":0.002,"p_recover":0.5},"name":"Ikorodu Road"},{"from_km":16.251,"to_km":17.167,"road_class":"urban","signal":{"p_drop":0.002,"p_recover":0.5}},{"from_km":17.167,"to_km":18.121,"road_class":"slow_corridor","signal":{"p_drop":0.002,"p_recover":0.5},"name":"Ikorodu Road"},{"from_km":18.121,"to_km":21.022,"road_class":"urban","signal":{"p_drop":0.002,"p_recover":0.5}},{"from_km":21.022,"to_km":23.085,"road_class":"slow_corridor","signal":{"p_drop":0.002,"p_recover":0.5},"name":"Third Mainland Bridge"},{"from_km":23.085,"to_km":24.714,"road_class":"urban","signal":{"p_drop":0.002,"p_recover":0.5}},{"from_km":24.714,"to_km":24.881,"road_class":"slow_corridor","signal":{"p_drop":0.002,"p_recover":0.5},"name":"Third Mainland Bridge"},{"from_km":24.881,"to_km":39.276,"road_class":"urban","signal":{"p_drop":0.002,"p_recover":0.5}}],"dead_zones":[]}},{"type":"Feature","geometry":{"type":"LineString","coordinates":[[3.36151,6.44851],[3.36157,6.44845],[3.36163,6.44847],[3.3619,6.44836],[3.36184,6.44809],[3.36618,6.44638],[3.36663,6.44757],[3.36702,6.44847],[3.36717,6.44873],[3.36787,6.44861],[3.36822,6.44877],[3.36836,6.44892],[3.36841,6.44907],[3.36816,6.44943],[3.36791,6.44993],[3.36671,6.45308],[3.36483,6.45717],[3.36447,6.45834],[3.36432,6.45938],[3.36426,6.46292],[3.36417,6.46496],[3.36373,6.46797],[3.36316,6.47067],[3.363,6.47171],[3.36299,6.47231],[3.36303,6.47271],[3.36324,6.47353],[3.36612,6.47957],[3.36634,6.48034],[3.36641,6.48077],[3.36646,6.48151],[3.36636,6.48243],[3.36605,6.48349],[3.36531,6.48492],[3.36469,6.4864],[3.36317,6.49062],[3.36291,6.49156],[3.36198,6.49424],[3.36182,6.49506],[3.36181,6.49627],[3.36208,6.49789],[3.36048,6.49819],[3.35889,6.49875],[3.35871,6.4989],[3.35861,6.49906],[3.35863,6.49916],[3.35857,6.49927],[3.35849,6.49932],[3.35838,6.4993],[3.35826,6.49916],[3.35835,6.49887],[3.35815,6.49864],[3.35773,6.49731],[3.35603,6.49743],[3.35552,6.49731],[3.35527,6.49713],[3.35512,6.49697],[3.35462,6.49615],[3.35453,6.49587],[3.35457,6.49569],[3.35488,6.49549],[3.35567,6.49543],[3.35649,6.49513],[3.35751,6.49495],[3.35773,6.4959],[3.35781,6.49737],[3.35818,6.4985],[3.35823,6.49864],[3.35832,6.49871],[3.35844,6.49873],[3.36051,6.49806],[3.36205,6.49775],[3.36247,6.49949],[3.36302,6.5012],[3.36314,6.50147],[3.36334,6.50224],[3.36394,6.50392],[3.36409,6.50457],[3.36405,6.50522],[3.3632,6.50899],[3.3632,6.50972],[3.36327,6.51021],[3.36552,6.51717],[3.36575,6.51765],[3.36619,6.51829],[3.36728,6.51947],[3.36747,6.51978],[3.36759,6.52013],[3.36764,6.52067],[3.36754,6.52533],[3.36765,6.52724],[3.3676,6.52953],[3.36771,6.52958],[3.36799,6.5296],[3.36846,6.52946],[3.36866,6.52962],[3.36893,6.52964],[3.36921,6.52931],[3.36937,6.52903],[3.36998,6.52763],[3.3705,6.52785],[3.37051,6.52794],[3.37043,6.52821],[3.37024,6.52839],[3.37046,6.52814],[3.3705,6.52785],[3.36998,6.52763],[3.36976,6.52809],[3.36935,6.52802],[3.36848,6.52814],[3.36762,6.52832],[3.3676,6.52899],[3.36745,6.53],[3.36727,6.53919],[3.36728,6.54185],[3.36691,6.55979],[3.36701,6.56079],[3.36689,6.56546],[3.36698,6.56756],[3.36712,6.56888],[3.36729,6.56982],[3.36776,6.57129],[3.36763,6.57149],[3.36748,6.57149],[3.36739,6.57138],[3.36731,6.57114],[3.36504,6.57157],[3.36458,6.57173],[3.36427,6.57208],[3.36364,6.57197],[3.36305,6.57215],[3.3628,6.5721],[3.36238,6.57193],[3.36224,6.57242],[3.3629,6.57311],[3.3631,6.57337],[3.36354,6.57312],[3.36787,6.57155],[3.36831,6.57258],[3.36872,6.57334],[3.36922,6.57415],[3.37013,6.57536],[3.37033,6.57584],[3.37068,6.57641],[3.37901,6.58785],[3.37989,6.58902],[3.38021,6.58926],[3.38068,6.58986],[3.38347,6.59379],[3.38634,6.59768],[3.38691,6.59836],[3.38693,6.59839],[3.38714,6.59837],[3.38784,6.59789],[3.38825,6.59771],[3.38875,6.59759],[3.3898,6.59745],[3.39092,6.59718],[3.39079,6.59645]]},"properties":{"route_id":"LAG-U2","name":"Lagos: Apapa hub along Ikorodu Road","kind":"urban","city":"Lagos","source":"osrm","length_km":24.144,"km_scale":0.997262,"towns":[{"name":"Apapa cold-store hub","km":0.0,"kind":"urban","depot":true,"stop_id":"HUB-LAG-APP","stop_type":"hub","window":null},{"name":"Surulere supermarket","km":7.9,"kind":"urban","depot":false,"stop_id":"LAG-U2-01","stop_type":"supermarket","window":"06:30-09:00"},{"name":"Fadeyi quick-service restaurant","km":13.301,"kind":"urban","depot":false,"stop_id":"LAG-U2-02","stop_type":"qsr","window":"07:00-09:00"},{"name":"Maryland hospital","km":18.695,"kind":"urban","depot":false,"stop_id":"LAG-U2-03","stop_type":"hospital","window":"07:30-10:00"},{"name":"Ketu open market","km":24.144,"kind":"urban","depot":false,"stop_id":"LAG-U2-04","stop_type":"open_market","window":"06:00-09:30"}],"segments":[{"from_km":0.0,"to_km":17.233,"road_class":"urban","signal":{"p_drop":0.002,"p_recover":0.5}},{"from_km":17.233,"to_km":17.862,"road_class":"slow_corridor","signal":{"p_drop":0.002,"p_recover":0.5},"name":"Ikorodu Road"},{"from_km":17.862,"to_km":22.135,"road_class":"urban","signal":{"p_drop":0.002,"p_recover":0.5}},{"from_km":22.135,"to_km":22.958,"road_class":"slow_corridor","signal":{"p_drop":0.002,"p_recover":0.5},"name":"Ikorodu Road"},{"from_km":22.958,"to_km":23.762,"road_class":"urban","signal":{"p_drop":0.002,"p_recover":0.5}},{"from_km":23.762,"to_km":24.144,"road_class":"slow_corridor","signal":{"p_drop":0.002,"p_recover":0.5},"name":"Ikorodu Road"}],"dead_zones":[]}},{"type":"Feature","geometry":{"type":"LineString","coordinates":[[7.3648,9.03987],[7.36582,9.03936],[7.3662,9.04021],[7.36642,9.04055],[7.36661,9.04058],[7.36834,9.03963],[7.36869,9.03933],[7.36924,9.03866],[7.37078,9.0401],[7.37088,9.0403],[7.37094,9.04059],[7.37089,9.0427],[7.37096,9.04873],[7.37108,9.0489],[7.3713,9.04893],[7.37438,9.04749],[7.3767,9.04655],[7.38033,9.04522],[7.3838,9.0442],[7.38551,9.04373],[7.38809,9.04319],[7.39105,9.04247],[7.39598,9.04102],[7.39847,9.04015],[7.4025,9.03861],[7.40399,9.0381],[7.40528,9.03773],[7.40873,9.03694],[7.40974,9.03675],[7.412,9.03644],[7.41204,9.03895],[7.41196,9.04128],[7.41173,9.04405],[7.41099,9.05176],[7.41062,9.05871],[7.41044,9.0636],[7.41053,9.06364],[7.41059,9.06411],[7.41069,9.06442],[7.41088,9.06458],[7.41112,9.0647],[7.41162,9.06472],[7.41493,9.06328],[7.41849,9.06183],[7.41909,9.06164],[7.41968,9.06152],[7.42052,9.06147],[7.42116,9.06153],[7.42213,9.06175],[7.42296,9.06406],[7.42355,9.06507],[7.42371,9.06553],[7.42376,9.06574],[7.42374,9.06615],[7.42342,9.06762],[7.42338,9.06809],[7.4247,9.06796],[7.42477,9.06843],[7.42491,9.06884],[7.42506,9.06911],[7.42571,9.06969],[7.42537,9.07008],[7.42571,9.06969],[7.42666,9.07046],[7.42593,9.07156],[7.42616,9.07168],[7.42674,9.07184],[7.42905,9.07212],[7.42891,9.07331],[7.4288,9.07375],[7.42852,9.07425],[7.42815,9.0746],[7.42704,9.07523],[7.4267,9.07556],[7.42656,9.07594],[7.42653,9.0762],[7.42657,9.07647],[7.42672,9.07677],[7.42791,9.07852],[7.42796,9.07854],[7.42808,9.07854],[7.42995,9.07803],[7.43244,9.07729],[7.43318,9.07721],[7.43363,9.07711],[7.43466,9.07678],[7.43627,9.07639],[7.43821,9.07609],[7.4392,9.07602],[7.44021,9.07601],[7.44132,9.07605],[7.44228,9.07614],[7.44415,9.07648],[7.44619,9.07708],[7.44936,9.0782],[7.45067,9.07853],[7.45208,9.07869],[7.45334,9.07866],[7.45421,9.07854],[7.45541,9.07821],[7.45599,9.07798],[7.45719,9.07738],[7.45726,9.07698],[7.45717,9.07671],[7.45691,9.07654],[7.45674,9.07651],[7.45656,9.07655],[7.45632,9.07674],[7.45624,9.07703],[7.45632,9.07731],[7.46173,9.08188],[7.46358,9.08245],[7.46417,9.08244],[7.46593,9.08131],[7.46887,9.08318],[7.46953,9.08238],[7.47058,9.08127],[7.47044,9.08113],[7.47041,9.08116],[7.46978,9.08048],[7.47049,9.07969],[7.47055,9.0797],[7.4707,9.07984],[7.47055,9.0797],[7.47049,9.07969],[7.46978,9.08048],[7.47041,9.08116],[7.47044,9.08113],[7.47058,9.08127],[7.46953,9.08238],[7.46887,9.08318],[7.47081,9.08445],[7.47205,9.08541],[7.47329,9.08659],[7.47443,9.08781],[7.47546,9.0891],[7.47575,9.08942],[7.47628,9.08974],[7.47679,9.08986],[7.47732,9.08982],[7.47778,9.08963],[7.47806,9.08946],[7.4784,9.08907],[7.47919,9.08769],[7.47964,9.08711],[7.48038,9.0864],[7.48118,9.08583],[7.48203,9.08545],[7.48785,9.08332],[7.48923,9.08268],[7.48964,9.08323],[7.4902,9.08368],[7.49073,9.0839],[7.49187,9.08406],[7.49201,9.08422],[7.49206,9.08441],[7.49223,9.08455],[7.49432,9.08544],[7.4936,9.08714],[7.49348,9.0876],[7.49344,9.08792],[7.49343,9.08822],[7.49354,9.08876],[7.4937,9.0887],[7.49371,9.08862],[7.49393,9.08854],[7.49412,9.08852],[7.49417,9.08854],[7.49413,9.08859],[7.49386,9.08871],[7.4937,9.0887],[7.49354,9.08876],[7.49343,9.08822],[7.49344,9.08792],[7.49348,9.0876],[7.4936,9.08714],[7.49427,9.08555],[7.49255,9.08485],[7.49127,9.08466],[7.49113,9.08453],[7.49108,9.08438],[7.49118,9.08415],[7.49136,9.08402],[7.49202,9.0839],[7.49253,9.08367],[7.49521,9.08176],[7.49576,9.08117],[7.49607,9.08074],[7.49637,9.08019],[7.49667,9.07937],[7.49684,9.07843],[7.49679,9.07745],[7.49641,9.07541],[7.49576,9.07326],[7.49543,9.07172],[7.49533,9.07099],[7.49532,9.07032],[7.49547,9.06952],[7.49557,9.06919],[7.49586,9.06857],[7.50011,9.06183],[7.50358,9.05644],[7.50485,9.05437],[7.50595,9.05474],[7.50627,9.05481],[7.50691,9.05487],[7.50812,9.05485],[7.50912,9.05491],[7.50988,9.05473],[7.5103,9.05459],[7.51166,9.05403],[7.51331,9.05296],[7.51509,9.05168],[7.51569,9.05133],[7.5165,9.05091],[7.51819,9.05022],[7.51893,9.05002],[7.52018,9.04975],[7.52161,9.04961],[7.52211,9.04946],[7.52378,9.04951],[7.52577,9.04984],[7.52636,9.04958],[7.52644,9.04944],[7.52709,9.04656],[7.5271,9.04578],[7.52694,9.045],[7.52519,9.04556],[7.52491,9.04513],[7.52463,9.0449],[7.52386,9.0444],[7.52345,9.04428],[7.52349,9.0424],[7.52276,9.04244],[7.52223,9.04255],[7.52159,9.04278],[7.52083,9.04317],[7.51991,9.04382],[7.51959,9.0441],[7.51904,9.04469],[7.51767,9.04641],[7.51724,9.04682],[7.51671,9.04724],[7.51561,9.04789],[7.51495,9.04822],[7.51361,9.04869],[7.51357,9.04859],[7.51462,9.04824],[7.51477,9.04799],[7.51473,9.04773],[7.51394,9.04682],[7.51248,9.04544],[7.50814,9.04082],[7.50723,9.03975],[7.50647,9.0387],[7.50573,9.03751],[7.50543,9.03696],[7.50467,9.03529],[7.50427,9.03418],[7.50329,9.03088],[7.50234,9.02948],[7.50195,9.02932],[7.50022,9.02998],[7.49815,9.03099],[7.49373,9.03394],[7.49272,9.03472],[7.49186,9.0355],[7.49164,9.03527],[7.49149,9.03501],[7.49121,9.03508],[7.4909,9.03377],[7.49084,9.03367],[7.49076,9.03366],[7.49067,9.03352],[7.49057,9.03345],[7.49067,9.03352],[7.49076,9.03366],[7.49084,9.03367],[7.4909,9.03377],[7.49121,9.03508],[7.49149,9.03501],[7.49164,9.03527],[7.49186,9.0355],[7.49067,9.03674],[7.49005,9.03748],[7.49071,9.03889],[7.49121,9.03955],[7.49193,9.04016],[7.49319,9.04087],[7.49362,9.04117],[7.49403,9.04156],[7.49442,9.04202],[7.49475,9.04264],[7.49497,9.0432],[7.49511,9.04387],[7.49514,9.04462],[7.495,9.04541],[7.49482,9.04598],[7.49465,9.04633],[7.48827,9.05635]]},"properties":{"route_id":"ABJ-U1","name":"Abuja: Idu hub pharma round","kind":"urban","city":"Abuja","source":"osrm","length_km":41.34,"km_scale":0.998644,"towns":[{"name":"Idu cold-store hub (Idu industrial area)","km":0.0,"kind":"urban","depot":true,"stop_id":"HUB-ABJ-IDU","stop_type":"hub","window":null},{"name":"Jabi supermarket","km":12.221,"kind":"urban","depot":false,"stop_id":"ABJ-U1-01","stop_type":"supermarket","window":"07:00-09:30"},{"name":"Wuse II pharmacy","km":19.611,"kind":"urban","depot":false,"stop_id":"ABJ-U1-02","stop_type":"pharmacy","window":"08:00-11:00"},{"name":"Maitama hospital","km":24.069,"kind":"urban","depot":false,"stop_id":"ABJ-U1-03","stop_type":"hospital","window":"07:30-10:30"},{"name":"Asokoro hospital","km":32.542,"kind":"urban","depot":false,"stop_id":"ABJ-U1-04","stop_type":"hospital","window":"08:00-11:00"},{"name":"Garki pharmacy","km":38.215,"kind":"urban","depot":false,"stop_id":"ABJ-U1-05","stop_type":"pharmacy","window":"08:30-12:00"},{"name":"Central Business District hotel","km":41.34,"kind":"urban","depot":false,"stop_id":"ABJ-U1-06","stop_type":"hotel","window":"09:00-12:00"}],"segments":[{"from_km":0.0,"to_km":41.34,"road_class":"urban","signal":{"p_drop":0.002,"p_recover":0.5}}],"dead_zones":[]}},{"type":"Feature","geometry":{"type":"LineString","coordinates":[[7.03888,4.81199],[7.03792,4.81129],[7.03905,4.80961],[7.03976,4.80863],[7.03856,4.80773],[7.03568,4.80579],[7.03531,4.80558],[7.03498,4.80558],[7.0349,4.80549],[7.03488,4.80537],[7.0348,4.8053],[7.0343,4.80504],[7.03353,4.80472],[7.03274,4.8045],[7.03177,4.80436],[7.03077,4.80437],[7.0296,4.80454],[7.02907,4.80469],[7.02844,4.80493],[7.02794,4.80518],[7.02793,4.8053],[7.02785,4.80538],[7.02771,4.80539],[7.02763,4.80532],[7.0276,4.80522],[7.02764,4.80511],[7.02754,4.80457],[7.02706,4.80315],[7.02695,4.80259],[7.02692,4.80152],[7.02713,4.79713],[7.02684,4.79696],[7.02566,4.79676],[7.02483,4.79654],[7.01902,4.79452],[7.01889,4.79451],[7.01878,4.79459],[7.01864,4.79459],[7.01853,4.79452],[7.01847,4.79438],[7.01823,4.79426],[7.01586,4.7934],[7.01548,4.79347],[7.01536,4.7934],[7.01528,4.79323],[7.01515,4.79309],[7.01298,4.79235],[7.01273,4.79233],[7.01245,4.79241],[7.0111,4.79337],[7.01095,4.79344],[7.01088,4.79341],[7.01046,4.79282],[7.01264,4.79125],[7.01177,4.79007],[7.01142,4.79031],[7.01177,4.79007],[7.01138,4.78954],[7.00924,4.79117],[7.01046,4.79282],[7.00875,4.79407],[7.0079,4.79463],[7.00664,4.79567],[7.00555,4.79647],[7.00499,4.7967],[7.00495,4.79683],[7.00498,4.79695],[7.0049,4.79707],[7.0047,4.79708],[7.00452,4.79686],[7.00443,4.79683],[7.00413,4.79686],[7.00272,4.79788],[7.00211,4.79838],[7.00208,4.79845],[7.00548,4.80309],[7.00626,4.80249],[7.00555,4.80153],[7.00647,4.80084],[7.0061,4.79995],[7.00579,4.79876],[7.00558,4.79823],[7.00476,4.7971],[7.00468,4.79706],[7.00438,4.79667],[7.00433,4.79654],[7.00357,4.79547],[7.00209,4.79384],[7.00178,4.79329],[7.00154,4.79256],[7.0014,4.79249],[7.001,4.79254],[7.00045,4.79314],[6.9997,4.79245],[6.99811,4.79421],[6.99808,4.79435],[6.99877,4.79499],[6.99893,4.79484],[7.00031,4.79609],[7.002,4.79833],[7.00272,4.79788],[7.00413,4.79686],[7.00424,4.79674],[7.0044,4.7964],[7.00452,4.79637],[7.00463,4.79642],[7.00497,4.79686],[7.00498,4.79695],[7.00576,4.79802],[7.00589,4.79826],[7.00602,4.7986],[7.00629,4.79983],[7.00653,4.80044],[7.00962,4.80656],[7.00995,4.80742],[7.01012,4.80814],[7.01021,4.80956],[7.0102,4.81277],[7.01011,4.81518],[7.00997,4.81588],[7.00955,4.81682],[7.00955,4.81698],[7.00943,4.81709],[7.00744,4.82155],[7.00625,4.82404],[7.00613,4.82446],[7.00603,4.82453],[7.00593,4.82454],[7.00584,4.82449],[7.00578,4.82437],[7.00563,4.8243],[7.00501,4.82413],[7.00469,4.82496],[7.00462,4.82502],[7.00452,4.82502]]},"properties":{"route_id":"PHC-U1","name":"Port Harcourt: Trans-Amadi hub retail round","kind":"urban","city":"Port Harcourt","source":"osrm","length_km":14.574,"km_scale":0.998953,"towns":[{"name":"Trans-Amadi cold-store hub","km":0.0,"kind":"urban","depot":true,"stop_id":"HUB-PHC-TAM","stop_type":"hub","window":null},{"name":"Old GRA supermarket","km":5.482,"kind":"urban","depot":false,"stop_id":"PHC-U1-01","stop_type":"supermarket","window":"07:00-09:30"},{"name":"D-Line pharmacy","km":7.585,"kind":"urban","depot":false,"stop_id":"PHC-U1-02","stop_type":"pharmacy","window":"08:00-11:00"},{"name":"Mile 1 open market","km":9.683,"kind":"urban","depot":false,"stop_id":"PHC-U1-03","stop_type":"open_market","window":"06:00-09:00"},{"name":"GRA Phase 2 hotel","km":14.574,"kind":"urban","depot":false,"stop_id":"PHC-U1-04","stop_type":"hotel","window":"08:00-11:30"}],"segments":[{"from_km":0.0,"to_km":14.574,"road_class":"urban","signal":{"p_drop":0.002,"p_recover":0.5}}],"dead_zones":[]}}]}
